{"type":"FeatureCollection","features":[{"type":"Feature","properties":{"name":"Northside Hospital","beds":673,"type":"Short Term","address":"1000 Johnson Ferry Rd","city":"Atlanta","county":"Fulton","note":null},"geometry":{"type":"Point","coordinates":[-84.35405139999995,33.90791632000003]}},{"type":"Feature","properties":{"name":"Grady Memorial Hospital","beds":707,"type":"Short Term","address":"80 Jesse Hill Jr Dr SE","city":"Atlanta","county":"Fulton","note":null},"geometry":{"type":"Point","coordinates":[-84.38253125999995,33.752225450000026]}},{"type":"Feature","properties":{"name":"Scottish Rite Childrens Medical Ctr","beds":319,"type":"Childrens","address":"1001 Johnson Ferry Rd","city":"Atlanta","county":"Fulton","note":null},"geometry":{"type":"Point","coordinates":[-84.35378995999997,33.90621601000004]}},{"type":"Feature","properties":{"name":"Arthur M. Blank Hospital","beds":446,"type":"Childrens","address":"2220 North Druid Hills Rd NE","city":"Brookhaven","county":"Dekalb","note":"COORDINATE UPDATED: CMS reassigned CCN 113300 from Egleston to Arthur M. Blank Hospital (opened Sep 2024). FY2023 bed-days figures reflect pre-relocation Egleston operations."},"geometry":{"type":"Point","coordinates":[-84.33037099999996,33.83093800000006]}},{"type":"Feature","properties":{"name":"Southern Regional Medical Center","beds":233,"type":"Short Term","address":"11 Upper Riverdale Rd SW","city":"Riverdale","county":"Clayton","note":null},"geometry":{"type":"Point","coordinates":[-84.38939427999998,33.57874876000005]}},{"type":"Feature","properties":{"name":"Piedmont Hospital Inc.","beds":574,"type":"Short Term","address":"1968 Peachtree Rd NW","city":"Atlanta","county":"Fulton","note":null},"geometry":{"type":"Point","coordinates":[-84.39584800999995,33.80999000000003]}},{"type":"Feature","properties":{"name":"North Fulton Regional Hospital","beds":178,"type":"Short Term","address":"3000 Hospital Blvd","city":"Roswell","county":"Fulton","note":null},"geometry":{"type":"Point","coordinates":[-84.32060575999998,34.06240905000004]}},{"type":"Feature","properties":{"name":"St. Josephs Of Atlanta","beds":355,"type":"Short Term","address":"5665 Peachtree Dunwoody Rd","city":"Atlanta","county":"Dekalb","note":null},"geometry":{"type":"Point","coordinates":[-84.34959297999995,33.90853000000004]}},{"type":"Feature","properties":{"name":"Emory Hillandale Hospital","beds":90,"type":"Short Term","address":"2801 Dekalb Medical Pkwy","city":"Lithonia","county":"Dekalb","note":null},"geometry":{"type":"Point","coordinates":[-84.14688846999996,33.70757006000008]}},{"type":"Feature","properties":{"name":"Emory Johns Creek Hospital","beds":163,"type":"Short Term","address":"6325 Hospital Pkwy","city":"Duluth","county":"Fulton","note":null},"geometry":{"type":"Point","coordinates":[-84.17616762999995,34.06695510000003]}},{"type":"Feature","properties":{"name":"Emory Decatur Hospital","beds":401,"type":"Short Term","address":"2701 N Decatur Rd","city":"Decatur","county":"Dekalb","note":null},"geometry":{"type":"Point","coordinates":[-84.28241319999995,33.79223525000003]}},{"type":"Feature","properties":{"name":"Emory University Hospital","beds":666,"type":"Short Term","address":"1364 Clifton Rd NE","city":"Atlanta","county":"Dekalb","note":null},"geometry":{"type":"Point","coordinates":[-84.32101235999994,33.79233730000004]}},{"type":"Feature","properties":{"name":"Emory University Hospital Midtown","beds":548,"type":"Short Term","address":"550 PEACHTREE STREET","city":"Atlanta","county":"Fulton","note":null},"geometry":{"type":"Point","coordinates":[-84.38673199999994,33.769175000000075]}}]}