{"type":"FeatureCollection","features":[{"type":"Feature","properties":{"seccion":"2608906002","label":"Distrito 06 \u00b7 Secci\u00f3n 002","isvun_g":0.9},"geometry":{"type":"Polygon","coordinates":[[[-2.44287922926681,42.49436637455258],[-2.4438331836625466,42.494799522133285],[-2.4457764622392544,42.49653802026439],[-2.4475683474015875,42.497994184419476],[-2.4500386006012045,42.4975760625875],[-2.45792200000515,42.496053432951214],[-2.4600881346326915,42.49571439485895],[-2.471284399958122,42.49361117839174],[-2.473011107695128,42.49279446111347],[-2.472946737615608,42.49184506199874],[-2.4728608157200864,42.49139112930386],[-2.4729123543560765,42.49133791278624],[-2.472904671387712,42.49122458446977],[-2.473625591363307,42.49059705732388],[-2.4741027625128216,42.490105490409626],[-2.474749166764741,42.48927879408921],[-2.475125297575102,42.48904589734561],[-2.4756580589973454,42.48849191747167],[-2.4761953361390034,42.48775621563735],[-2.476352976547427,42.48777361706471],[-2.47431546972442,42.48725130219279],[-2.4700154249021034,42.485635126979474],[-2.467371574648261,42.48429845092859],[-2.464049162252001,42.482503875951856],[-2.4620604974972133,42.480902107827404],[-2.461098503710784,42.47986602743881],[-2.460752805192914,42.47928999253554],[-2.460594282635293,42.4791573180796],[-2.459822176522473,42.47775081099991],[-2.45860394642468,42.47503606787478],[-2.4578964400612637,42.47372660112405],[-2.4574556012474966,42.47322744948534],[-2.45685463988186,42.47269565304049],[-2.4571698069787886,42.47239959437302],[-2.4572071762482484,42.471866196792114],[-2.4569205196654895,42.47091895473338],[-2.456604665140345,42.47078333882762],[-2.456667357076131,42.47072285082716],[-2.456304036966894,42.47055155125174],[-2.4552930754549855,42.470256681061166],[-2.4537676856288657,42.469712235470226],[-2.453106176892559,42.46956238120928],[-2.4520010095158637,42.469152118012445],[-2.451818684025154,42.46895582600104],[-2.451598503769964,42.468274847541096],[-2.451462386023833,42.46802447122793],[-2.4501660218148187,42.46746423292609],[-2.450208994707458,42.467196071555755],[-2.450086658181958,42.46709570057414],[-2.449590534440256,42.46708858398875],[-2.4495967263689034,42.46730246210905],[-2.4488804444131147,42.467353651851695],[-2.4488205240800505,42.46686411982251],[-2.4478709389330593,42.46621195599067],[-2.4478038535132995,42.46621955685267],[-2.4479357851301056,42.46701304916427],[-2.447671387995646,42.4670379438792],[-2.4477246945382096,42.46746038426342],[-2.447383754365596,42.467489781501826],[-2.447490892095161,42.4679346110045],[-2.447855855767361,42.46787306024714],[-2.4479355028664105,42.46824933938002],[-2.446828038451871,42.46864546840734],[-2.4467900305079824,42.46869337676572],[-2.4464137121464202,42.468772878708094],[-2.445939931188741,42.468786619377234],[-2.445934722958637,42.46870176127433],[-2.44543258616427,42.46874471928141],[-2.445731961298709,42.47206392994646],[-2.4443148920177378,42.47157981489182],[-2.4431294941325863,42.47129018930038],[-2.4407405409343528,42.47193627501901],[-2.438645987545152,42.47293911993084],[-2.437360979809934,42.47418574785723],[-2.4355281403749793,42.47582069758877],[-2.4331373942277863,42.47676503124389],[-2.4322804469422725,42.47662431690605],[-2.4310349822210147,42.47622973272407],[-2.426990686051648,42.47431025441804],[-2.4237373984390267,42.47194246817238],[-2.423023016993947,42.47147622618188],[-2.415275549999126,42.468437718267644],[-2.410918954869883,42.46710290330295],[-2.4099508276151953,42.46690045091855],[-2.409351950579968,42.46684164131877],[-2.408546778637839,42.466837842192305],[-2.407358276334056,42.46699151388995],[-2.4039521968133997,42.46791261552536],[-2.4028746221228627,42.46831471409918],[-2.401931081170858,42.46887165464434],[-2.401038767731139,42.46967826185951],[-2.4000887145063645,42.47082067882479],[-2.3993418461010942,42.47204301927385],[-2.3990541231533022,42.47268681403298],[-2.3998391219574935,42.47341436738048],[-2.4003570660341245,42.474304254654825],[-2.400867292145356,42.47499140823379],[-2.4011763130313883,42.47553732629864],[-2.404118135763922,42.4790224640862],[-2.4055570688438377,42.4808144139323],[-2.4058269926590663,42.48101204640381],[-2.4062437908553376,42.481438733723074],[-2.4069812013379432,42.48236572570741],[-2.4071874638841773,42.48272242718005],[-2.4075766552115065,42.48321443918983],[-2.408301619177006,42.48363298627107],[-2.4091831667329155,42.48431169971733],[-2.409531853583519,42.484727578157084],[-2.4100855626122004,42.485259693351665],[-2.4107329684556262,42.48579210750649],[-2.411012253923488,42.486111352982284],[-2.411214430827323,42.486531066013825],[-2.411596085348781,42.48708012169197],[-2.4116875838764673,42.487534836698565],[-2.4126749427957286,42.489528985490665],[-2.413445812899727,42.49069781778812],[-2.4140638524486375,42.49141519909079],[-2.4144303929353614,42.49165736381801],[-2.419346470280382,42.49034785589879],[-2.419313631039926,42.49023357529622],[-2.420139635196551,42.490057645861235],[-2.422233179038954,42.48982056563139],[-2.4272426943032777,42.4907520286846],[-2.4281704992820985,42.49063833197007],[-2.4317020177612023,42.490750456619104],[-2.432281007013991,42.490807359664096],[-2.4356346557996464,42.49048652552958],[-2.4370604113546346,42.49027273778649],[-2.437318295603253,42.490161285812405],[-2.438292591697677,42.491962577044],[-2.438501720030138,42.492264402633836],[-2.4424820877205207,42.49402092100817],[-2.44287922926681,42.49436637455258]]]}},{"type":"Feature","properties":{"seccion":"2608904030","label":"Distrito 04 \u00b7 Secci\u00f3n 030","isvun_g":0.2},"geometry":{"type":"Polygon","coordinates":[[[-2.4621370490489736,42.468669081939964],[-2.462337405410582,42.4692268818253],[-2.4640948450717337,42.47297430966976],[-2.464410474175496,42.47350635168308],[-2.4660546818910403,42.47537096432159],[-2.4669214766433423,42.476762500675356],[-2.469298357311099,42.47872121900567],[-2.4742731811445746,42.48213418374003],[-2.475860638553108,42.48286220698847],[-2.4786788579994496,42.483892426026046],[-2.487204734700804,42.4850661405101],[-2.4896827267292627,42.48548675934314],[-2.4914111366228973,42.48247333444761],[-2.4918957112688007,42.482210792857586],[-2.492008432858287,42.48137327155052],[-2.4919952273076658,42.48081083639596],[-2.4921986415846535,42.48065075362639],[-2.494818680619349,42.48063553866153],[-2.496532923401097,42.480927505910316],[-2.497373379354677,42.48133167679488],[-2.4992684438437127,42.483162110946495],[-2.5000766754809556,42.48383014823678],[-2.5007465833068654,42.48400424685785],[-2.500871723994654,42.48391278888735],[-2.501060708603893,42.48346571453755],[-2.5009217592210744,42.48312098926711],[-2.500378936965377,42.482384862063014],[-2.5005065739317454,42.481685105657625],[-2.500040420015747,42.481270565971016],[-2.5000892826225307,42.480765699686735],[-2.4992810936306147,42.480097662348165],[-2.49900797380188,42.47826047279369],[-2.4981221919156935,42.47751186043887],[-2.497814355925114,42.47653537444188],[-2.497242442642907,42.47531709304442],[-2.4968999572074972,42.47517836353894],[-2.4958889193320144,42.474567095697346],[-2.4953906528039678,42.4743934730521],[-2.4954855101964415,42.474083856992394],[-2.4956174515416256,42.474009896416625],[-2.4957675812162985,42.4737518382329],[-2.4970188550213357,42.47283730253114],[-2.497253657664048,42.47261991764253],[-2.497560271876698,42.47254306188112],[-2.4977539169317406,42.47231148547938],[-2.4978953940772035,42.472036437027015],[-2.4978650670787963,42.471829755763515],[-2.4977101859134705,42.47157679725919],[-2.4979624759981367,42.47090036200584],[-2.4985731459679794,42.47028235514753],[-2.499278163229131,42.46946950083552],[-2.5022260592708725,42.46923699223549],[-2.502819961684269,42.46506088912631],[-2.4996558788266414,42.46483368783296],[-2.4985505329912505,42.46444023993236],[-2.4979306547930427,42.4635317136288],[-2.4959060758485165,42.46299782944805],[-2.494924213072689,42.46291460318377],[-2.4944417742981964,42.46270658943179],[-2.493959051751517,42.462567436677226],[-2.4929644638233968,42.46180698303639],[-2.4917957343332486,42.461677267117764],[-2.4889096811529674,42.46210481072451],[-2.488535512732629,42.4621036901034],[-2.4880530542955284,42.46190712524615],[-2.4877112061687585,42.46164211818687],[-2.4874793334180656,42.46118232190909],[-2.4872301404485895,42.461124184570195],[-2.4869493188841476,42.46116925109319],[-2.4863436436433677,42.460627982425336],[-2.4858448160583286,42.460614999434505],[-2.4856113239111273,42.46046913575388],[-2.4853321448155117,42.46020026018733],[-2.485561655928678,42.46020006846324],[-2.485737976396872,42.46008670965018],[-2.487315217980102,42.45947167951453],[-2.4883300218977835,42.45913040038354],[-2.4877709247573967,42.45863519020264],[-2.4875091362628368,42.45827648075349],[-2.4868444456970646,42.458491192951335],[-2.4837122514041288,42.459132947457114],[-2.48381646476078,42.45946506476834],[-2.483215142347121,42.45977903298106],[-2.4838071010073457,42.46060506601439],[-2.4826930897105917,42.4608533864879],[-2.4833489780803135,42.46430814996639],[-2.482025752567888,42.46398549740394],[-2.479607891843364,42.463764000699115],[-2.4741225450287616,42.462672916564266],[-2.473603022204585,42.46149465999975],[-2.462475432572577,42.46414947585814],[-2.4624363352037215,42.464866680765184],[-2.4622921474682733,42.4659250660219],[-2.4620351324385252,42.467262172246485],[-2.4620172564245104,42.46806722609654],[-2.4621370490489736,42.468669081939964]]]}},{"type":"Feature","properties":{"seccion":"2608902017","label":"Distrito 02 \u00b7 Secci\u00f3n 017","isvun_g":0.6},"geometry":{"type":"Polygon","coordinates":[[[-2.4111412362512534,42.46716948304654],[-2.415275549999126,42.468437718267644],[-2.423023016993947,42.47147622618188],[-2.4237373984390267,42.47194246817238],[-2.426990686051648,42.47431025441804],[-2.4310349822210147,42.47622973272407],[-2.4322804469422725,42.47662431690605],[-2.4331373942277863,42.47676503124389],[-2.4355281403749793,42.47582069758877],[-2.437360979809934,42.47418574785723],[-2.438645987545152,42.47293911993084],[-2.4407405409343528,42.47193627501901],[-2.4425344863365432,42.47145111342671],[-2.441865851793466,42.4702716900446],[-2.4419788306952888,42.46998712416808],[-2.440772829043686,42.47013037826538],[-2.4387276663730377,42.470200350184854],[-2.43678632199866,42.47046693990077],[-2.435775201966066,42.47053896389049],[-2.4340645901309177,42.47041363720051],[-2.432162505915164,42.470169544887966],[-2.4313479377814513,42.46994765872682],[-2.4270013546215896,42.468495288872504],[-2.425476981566756,42.46812419207781],[-2.4272914997972297,42.464033915038165],[-2.427723933640388,42.46413612836437],[-2.4277311333929,42.46337230730876],[-2.4275622436761393,42.463299958374726],[-2.427460340296697,42.463190930709125],[-2.4266670446767424,42.46031624161027],[-2.4265378124148733,42.46012413542355],[-2.42639214113122,42.45960081161094],[-2.4195148492253327,42.45994579195426],[-2.4195214532654643,42.4598786380081],[-2.41476066047129,42.45997853018231],[-2.414358824661762,42.4602853698125],[-2.4133532747884203,42.46170490852368],[-2.412974572457499,42.46252990380495],[-2.412707518711132,42.46289620651299],[-2.412435910405389,42.46408886898316],[-2.4121211266761375,42.46462715620918],[-2.411978784453889,42.46499391475301],[-2.4119760656382536,42.46548743574912],[-2.4111412362512534,42.46716948304654]]]}},{"type":"Feature","properties":{"seccion":"2608902010","label":"Distrito 02 \u00b7 Secci\u00f3n 010","isvun_g":0.7},"geometry":{"type":"Polygon","coordinates":[[[-2.3871336819315108,42.47134172064949],[-2.3877863041032223,42.47134152704641],[-2.3890963508333045,42.47172315227716],[-2.39270133393809,42.47375778658222],[-2.3943600383967083,42.474058257780435],[-2.3960165213242686,42.47404754698919],[-2.3975523879741476,42.47363722647149],[-2.398773794607933,42.472551337736625],[-2.3990164098334033,42.472795222086184],[-2.3992719616226155,42.47218292253053],[-2.39973089254738,42.47135522079507],[-2.4001844930357477,42.470689447867066],[-2.4007003882962223,42.470049021792704],[-2.401276003241125,42.46943712617854],[-2.4017897641682446,42.46897796145367],[-2.402383444573355,42.46857516119174],[-2.4030460826797535,42.468236399289545],[-2.4039521968133997,42.46791261552536],[-2.4071657189525686,42.467035363330154],[-2.4079469397086566,42.46689099341623],[-2.408748012352488,42.466830774498426],[-2.40955248349876,42.46685594072933],[-2.4103438384406966,42.46696597660945],[-2.4111412362512534,42.46716948304654],[-2.4119760656382536,42.46548743574912],[-2.411978784453889,42.46499391475301],[-2.4121211266761375,42.46462715620918],[-2.412435910405389,42.46408886898316],[-2.412707518711132,42.46289620651299],[-2.412974572457499,42.46252990380495],[-2.4133532747884203,42.46170490852368],[-2.414358824661762,42.4602853698125],[-2.41503200264786,42.45977133509337],[-2.4163189656663686,42.45819211729885],[-2.4173522096448345,42.45739243388274],[-2.418245064209133,42.45660371245096],[-2.4189218886510817,42.45540101838484],[-2.4191612915541767,42.45436890709428],[-2.4193049641570115,42.45325448311729],[-2.418891877044221,42.453119987751855],[-2.415462941521088,42.45118973527498],[-2.4111295698661306,42.449563541185015],[-2.4105745689764455,42.44901844966749],[-2.410310941048419,42.44882991857136],[-2.4079312282324685,42.447351825499446],[-2.4056604028455197,42.44715278099088],[-2.402113647441834,42.446339102523524],[-2.3977084967927595,42.445181497569074],[-2.3961735375379196,42.444911804925944],[-2.3938095381896574,42.44414699695115],[-2.389982047895662,42.44271539219181],[-2.387230877242627,42.442240910620626],[-2.3765051722690744,42.4406573520183],[-2.3702893229093807,42.4373851048504],[-2.368961349389752,42.43690581972285],[-2.3683748414548664,42.43680968247846],[-2.365719956328384,42.436782653923736],[-2.364826666628159,42.43685299376889],[-2.36175197901991,42.437379592356834],[-2.3594484797040485,42.43704073370307],[-2.3548323574506593,42.436216756246175],[-2.3534317837954037,42.435733361380656],[-2.3510330355802433,42.4347124589137],[-2.350678196866192,42.435333131132516],[-2.35063023391314,42.43556568805939],[-2.350145363494956,42.43641578472337],[-2.3487574870106145,42.43948796334383],[-2.34807680443313,42.439564605370755],[-2.347422528106758,42.4395684479332],[-2.346671831829235,42.439432417131236],[-2.3450571125025657,42.43896390957365],[-2.343845932500556,42.43854727871096],[-2.3430593584088397,42.438210387375],[-2.3431859995786404,42.441545775851665],[-2.342529589886713,42.44347284336227],[-2.3407346148622077,42.44574008410024],[-2.3409930424092407,42.44755775597389],[-2.3426537379947887,42.44779909983696],[-2.3450929850665445,42.44841950783668],[-2.344608719350373,42.44991799523292],[-2.3444754489080992,42.450197312791666],[-2.3444304552440625,42.450757120201956],[-2.344317279710235,42.45099818667617],[-2.344300767813947,42.451170551849586],[-2.3438091583914966,42.451411524475155],[-2.3436859960821557,42.45158381836292],[-2.343360310389189,42.45186572310135],[-2.3429912597960993,42.45234028250369],[-2.342999001926112,42.452607702189404],[-2.343379387875044,42.45257201598714],[-2.344515779658065,42.45263255331496],[-2.3449460849701804,42.45269355083311],[-2.3457824528217164,42.452954988090404],[-2.346614543901883,42.453482061776924],[-2.3469732780810593,42.453848834091524],[-2.3470696813186196,42.45400698086793],[-2.347107400242364,42.45432689546931],[-2.3469137915479723,42.4548594028075],[-2.347100403308154,42.45659888189945],[-2.347437357685269,42.458266318445126],[-2.3479806630822435,42.45931794549759],[-2.34828399164214,42.46031435103728],[-2.3494992207938687,42.46246695585498],[-2.349631298819571,42.46316675171586],[-2.349880307146313,42.463492366463285],[-2.3501255731145636,42.465723049479784],[-2.350309550850035,42.4659792736313],[-2.3513735405241225,42.46676276306499],[-2.3538507044733765,42.46734825727429],[-2.356006298269722,42.468290137248715],[-2.356750686706604,42.468139419196916],[-2.357127961653174,42.468013115120876],[-2.3575984596683535,42.467417143296345],[-2.358021097275449,42.466235434160204],[-2.358626082591117,42.46483394597198],[-2.359316638438824,42.46405882181229],[-2.3596588687829887,42.46374553966267],[-2.360613975713225,42.46311597505463],[-2.3612369395560715,42.46285378384833],[-2.362397836357865,42.46274692559773],[-2.3635260606682174,42.46290253914191],[-2.3642941232890706,42.46302387651716],[-2.366160826986975,42.46350250683951],[-2.3678384343277865,42.46419169587544],[-2.3687599339606797,42.46470559189931],[-2.36960055394721,42.465250555306454],[-2.370264792567274,42.46593302643854],[-2.370747263893361,42.466262697974315],[-2.3710020005532266,42.46667232508927],[-2.3710915195182873,42.467486931586556],[-2.370852466896416,42.46837727483557],[-2.37067468251338,42.46881813551257],[-2.3711112603215736,42.469635578895144],[-2.371349897999923,42.469947582366615],[-2.3723413306306664,42.470930124202326],[-2.3728668988582706,42.47121217581379],[-2.3736184817247246,42.47147294463473],[-2.3750219463177906,42.47177779117604],[-2.375820503764904,42.47190371944187],[-2.377568016776982,42.47201678570306],[-2.3808885730640514,42.47181863620585],[-2.3836167849993943,42.47147311671314],[-2.3853472216321427,42.471311305163105],[-2.386506295269774,42.4712679826152],[-2.3871336819315108,42.47134172064949]]]}},{"type":"Feature","properties":{"seccion":"2608901001","label":"Distrito 01 \u00b7 Secci\u00f3n 001","isvun_g":0.9},"geometry":{"type":"Polygon","coordinates":[[[-2.4425344863365432,42.47145111342671],[-2.4431294941325863,42.47129018930038],[-2.443265359660945,42.47129690111854],[-2.4445014151690065,42.47163622516666],[-2.445731961298709,42.47206392994646],[-2.4454726685964885,42.469412501466536],[-2.4453847263695025,42.46799323986827],[-2.445062435818355,42.468053825847],[-2.4450253088528715,42.467962096754846],[-2.444083662727728,42.46831357141142],[-2.443237904512512,42.468548745391686],[-2.4430765927462454,42.467837508401026],[-2.4420583992436695,42.46779392228364],[-2.4419978051693443,42.468097386831246],[-2.441793498756328,42.46855783987593],[-2.4408904832163545,42.46945742313878],[-2.439317173813723,42.46911958974197],[-2.4391419270838917,42.46951083686429],[-2.4387276663730377,42.470200350184854],[-2.440772829043686,42.47013037826538],[-2.4419788306952888,42.46998712416808],[-2.441865851793466,42.4702716900446],[-2.4425344863365432,42.47145111342671]]]}},{"type":"Feature","properties":{"seccion":"2608902001","label":"Distrito 02 \u00b7 Secci\u00f3n 001","isvun_g":0.6},"geometry":{"type":"Polygon","coordinates":[[[-2.437500045214786,42.466493833422255],[-2.435775201966066,42.47053896389049],[-2.43678632199866,42.47046693990077],[-2.4387276663730377,42.470200350184854],[-2.4391419270838917,42.46951083686429],[-2.439781849120859,42.468217698831104],[-2.4400802004075723,42.46710110909636],[-2.437500045214786,42.466493833422255]]]}},{"type":"Feature","properties":{"seccion":"2608902002","label":"Distrito 02 \u00b7 Secci\u00f3n 002","isvun_g":0.5},"geometry":{"type":"Polygon","coordinates":[[[-2.4340645901309177,42.47041363720051],[-2.435775201966066,42.47053896389049],[-2.4368250366772237,42.46804813062613],[-2.4340266475896066,42.46831991613867],[-2.4342861730597702,42.4697301242766],[-2.4342439257300432,42.46973424114096],[-2.4340645901309177,42.47041363720051]]]}},{"type":"Feature","properties":{"seccion":"2608902003","label":"Distrito 02 \u00b7 Secci\u00f3n 003","isvun_g":0.4},"geometry":{"type":"Polygon","coordinates":[[[-2.4303481293849387,42.46960417551091],[-2.4313479377814513,42.46994765872682],[-2.432162505915164,42.470169544887966],[-2.4340645901309177,42.47041363720051],[-2.4342439257300432,42.46973424114096],[-2.4342861730597702,42.4697301242766],[-2.433975374284728,42.46804337058714],[-2.4326930877242,42.46816400915064],[-2.4328565581507857,42.467814590586244],[-2.4328066323106605,42.46752427076309],[-2.4313904063296206,42.46717747066058],[-2.4303481293849387,42.46960417551091]]]}},{"type":"Feature","properties":{"seccion":"2608905005","label":"Distrito 05 \u00b7 Secci\u00f3n 005","isvun_g":0.6},"geometry":{"type":"Polygon","coordinates":[[[-2.4552930754549855,42.470256681061166],[-2.4559470636120344,42.47044809564732],[-2.4568589794222495,42.46734205889716],[-2.4558268165207267,42.46708518480613],[-2.4552930754549855,42.470256681061166]]]}},{"type":"Feature","properties":{"seccion":"2608905001","label":"Distrito 05 \u00b7 Secci\u00f3n 001","isvun_g":0.5},"geometry":{"type":"Polygon","coordinates":[[[-2.451462386023833,42.46802447122793],[-2.451598503769964,42.468274847541096],[-2.451818684025154,42.46895582600104],[-2.4520010095158637,42.469152118012445],[-2.453106176892559,42.46956238120928],[-2.4537676856288657,42.469712235470226],[-2.4552930754549855,42.470256681061166],[-2.455680763542291,42.46800828794666],[-2.4529269398888185,42.467739598035095],[-2.4547457661704177,42.46680015322723],[-2.4532029731602663,42.46639331486332],[-2.4525058822884227,42.46656163339905],[-2.45230884136253,42.467733042952304],[-2.451720445989641,42.4678914330906],[-2.451462386023833,42.46802447122793]]]}},{"type":"Feature","properties":{"seccion":"2608902008","label":"Distrito 02 \u00b7 Secci\u00f3n 008","isvun_g":0.5},"geometry":{"type":"Polygon","coordinates":[[[-2.4292833492623185,42.46927683583061],[-2.4303481293849387,42.46960417551091],[-2.4322563817483376,42.46521944151901],[-2.430839303863277,42.46487848395587],[-2.4306418341324503,42.46610694972086],[-2.4292833492623185,42.46927683583061]]]}},{"type":"Feature","properties":{"seccion":"2608905009","label":"Distrito 05 \u00b7 Secci\u00f3n 009","isvun_g":0.4},"geometry":{"type":"Polygon","coordinates":[[[-2.456191365165847,42.46958534432356],[-2.4577814303056256,42.46968509517325],[-2.4578971309265336,42.468428189613654],[-2.4587323351742154,42.46846554775273],[-2.4589958339664624,42.467882685435036],[-2.4568589794222495,42.46734205889716],[-2.456191365165847,42.46958534432356]]]}},{"type":"Feature","properties":{"seccion":"2608901002","label":"Distrito 01 \u00b7 Secci\u00f3n 002","isvun_g":0.8},"geometry":{"type":"Polygon","coordinates":[[[-2.439317173813723,42.46911958974197],[-2.4408904832163545,42.46945742313878],[-2.441793498756328,42.46855783987593],[-2.4419978051693443,42.468097386831246],[-2.442132018923877,42.46751645637251],[-2.4420856844015377,42.46741960053661],[-2.4409691598101,42.467300149917044],[-2.4400802004075723,42.46710110909636],[-2.439859974031995,42.46802275060067],[-2.439317173813723,42.46911958974197]]]}},{"type":"Feature","properties":{"seccion":"2608902009","label":"Distrito 02 \u00b7 Secci\u00f3n 009","isvun_g":0.5},"geometry":{"type":"Polygon","coordinates":[[[-2.4281253009024244,42.468854191787365],[-2.4292833492623185,42.46927683583061],[-2.430225344562349,42.46711495032188],[-2.4290045196425982,42.46681790600385],[-2.4281253009024244,42.468854191787365]]]}},{"type":"Feature","properties":{"seccion":"2608905011","label":"Distrito 05 \u00b7 Secci\u00f3n 011","isvun_g":0.6},"geometry":{"type":"Polygon","coordinates":[[[-2.4578410180182826,42.469038413381234],[-2.460306432872144,42.46919102923033],[-2.4604127617503893,42.46823824441049],[-2.4589958339664624,42.467882685435036],[-2.4587323351742154,42.46846554775273],[-2.4578971309265336,42.468428189613654],[-2.4578410180182826,42.469038413381234]]]}},{"type":"Feature","properties":{"seccion":"2608902004","label":"Distrito 02 \u00b7 Secci\u00f3n 004","isvun_g":0.6},"geometry":{"type":"Polygon","coordinates":[[[-2.4263235417400235,42.46616944123795],[-2.425476981566756,42.46812419207781],[-2.426889511051064,42.46846159170608],[-2.4281253009024244,42.468854191787365],[-2.4290045196425982,42.46681790600385],[-2.4263235417400235,42.46616944123795]]]}},{"type":"Feature","properties":{"seccion":"2608906001","label":"Distrito 06 \u00b7 Secci\u00f3n 001","isvun_g":0.8},"geometry":{"type":"Polygon","coordinates":[[[-2.44543258616427,42.46874471928141],[-2.445934722958637,42.46870176127433],[-2.445939931188741,42.468786619377234],[-2.4464137121464202,42.468772878708094],[-2.4467900305079824,42.46869337676572],[-2.446828038451871,42.46864546840734],[-2.4479355028664105,42.46824933938002],[-2.447855855767361,42.46787306024714],[-2.447490892095161,42.4679346110045],[-2.447383754365596,42.467489781501826],[-2.4477246945382096,42.46746038426342],[-2.447671387995646,42.4670379438792],[-2.4479357851301056,42.46701304916427],[-2.4478038535132995,42.46621955685267],[-2.4454462741812977,42.4664221487108],[-2.4453439665155807,42.46752583196675],[-2.44543258616427,42.46874471928141]]]}},{"type":"Feature","properties":{"seccion":"2608905003","label":"Distrito 05 \u00b7 Secci\u00f3n 003","isvun_g":0.5},"geometry":{"type":"Polygon","coordinates":[[[-2.4604127617503893,42.46823824441049],[-2.461886018713154,42.46866555136544],[-2.4621370490489736,42.468669081939964],[-2.4620172564245104,42.46806722609654],[-2.4620351324385252,42.467262172246485],[-2.4622921474682733,42.4659250660219],[-2.462440956051638,42.46478150920779],[-2.4611113410136083,42.46498878890053],[-2.461405908766712,42.465686487577834],[-2.4614885001981412,42.46608375535113],[-2.4614531057286415,42.46639572219062],[-2.461173298516947,42.46645816873292],[-2.4604189514013766,42.46464268720916],[-2.458698464827819,42.46505522752998],[-2.4575369780957588,42.46751070308274],[-2.4604127617503893,42.46823824441049]]]}},{"type":"Feature","properties":{"seccion":"2608901004","label":"Distrito 01 \u00b7 Secci\u00f3n 004","isvun_g":0.7},"geometry":{"type":"Polygon","coordinates":[[[-2.4420583992436695,42.46779392228364],[-2.4430765927462454,42.467837508401026],[-2.443237904512512,42.468548745391686],[-2.444083662727728,42.46831357141142],[-2.4450253088528715,42.467962096754846],[-2.445062435818355,42.468053825847],[-2.4453847263695025,42.46799323986827],[-2.4453439665155807,42.46752583196675],[-2.4455317089635566,42.46531405812332],[-2.4431842644183135,42.46518596514436],[-2.4431542565043007,42.46522319269675],[-2.4408387074961495,42.46512033412721],[-2.440486994534001,42.46612589661608],[-2.442766368554225,42.46637591751271],[-2.4420856844015377,42.46741960053661],[-2.442132018923877,42.46751645637251],[-2.4420583992436695,42.46779392228364]]]}},{"type":"Feature","properties":{"seccion":"2608902005","label":"Distrito 02 \u00b7 Secci\u00f3n 005","isvun_g":0.5},"geometry":{"type":"Polygon","coordinates":[[[-2.4336735224475716,42.46644563261168],[-2.4340266475896066,42.46831991613867],[-2.4351922385103495,42.468204448548924],[-2.4349864334390965,42.466405462313126],[-2.4351870174507195,42.465930324666424],[-2.4340131855117355,42.46564220790226],[-2.4336735224475716,42.46644563261168]]]}},{"type":"Feature","properties":{"seccion":"2608902013","label":"Distrito 02 \u00b7 Secci\u00f3n 013","isvun_g":0.5},"geometry":{"type":"Polygon","coordinates":[[[-2.4351870174507195,42.465930324666424],[-2.4349864334390965,42.466405462313126],[-2.4351922385103495,42.468204448548924],[-2.4368250366772237,42.46804813062613],[-2.437500045214786,42.466493833422255],[-2.4351870174507195,42.465930324666424]]]}},{"type":"Feature","properties":{"seccion":"2608902015","label":"Distrito 02 \u00b7 Secci\u00f3n 015","isvun_g":0.7},"geometry":{"type":"Polygon","coordinates":[[[-2.4326295985137834,42.466479913431],[-2.4328565581507857,42.467814590586244],[-2.4326930877242,42.46816400915064],[-2.433975374284728,42.46804337058714],[-2.433697851729846,42.46644521158496],[-2.4326295985137834,42.466479913431]]]}},{"type":"Feature","properties":{"seccion":"2608905008","label":"Distrito 05 \u00b7 Secci\u00f3n 008","isvun_g":0.2},"geometry":{"type":"Polygon","coordinates":[[[-2.450161581980876,42.46713748948854],[-2.450211125612704,42.467258220564965],[-2.4501660218148187,42.46746423292609],[-2.451462386023833,42.46802447122793],[-2.451720445989641,42.4678914330906],[-2.45230884136253,42.467733042952304],[-2.4525058822884227,42.46656163339905],[-2.450161581980876,42.46713748948854]]]}},{"type":"Feature","properties":{"seccion":"2608905006","label":"Distrito 05 \u00b7 Secci\u00f3n 006","isvun_g":0.5},"geometry":{"type":"Polygon","coordinates":[[[-2.4547457661704177,42.46680015322723],[-2.4529269398888185,42.467739598035095],[-2.455680763542291,42.46800828794666],[-2.4558268165207267,42.46708518480613],[-2.4547457661704177,42.46680015322723]]]}},{"type":"Feature","properties":{"seccion":"2608902006","label":"Distrito 02 \u00b7 Secci\u00f3n 006","isvun_g":0.5},"geometry":{"type":"Polygon","coordinates":[[[-2.4313904063296206,42.46717747066058],[-2.4328066323106605,42.46752427076309],[-2.4326295985137834,42.466479913431],[-2.4336735224475716,42.46644563261168],[-2.4340131855117355,42.46564220790226],[-2.4322563817483376,42.46521944151901],[-2.4313904063296206,42.46717747066058]]]}},{"type":"Feature","properties":{"seccion":"2608905002","label":"Distrito 05 \u00b7 Secci\u00f3n 002","isvun_g":0.4},"geometry":{"type":"Polygon","coordinates":[[[-2.4568589794222495,42.46734205889716],[-2.4575369780957588,42.46751070308274],[-2.458698464827819,42.46505522752998],[-2.456291056516469,42.46564207546805],[-2.456936744761105,42.4670417305567],[-2.4568589794222495,42.46734205889716]]]}},{"type":"Feature","properties":{"seccion":"2608901003","label":"Distrito 01 \u00b7 Secci\u00f3n 003","isvun_g":0.5},"geometry":{"type":"Polygon","coordinates":[[[-2.437500045214786,42.466493833422255],[-2.4409691598101,42.467300149917044],[-2.4420856844015377,42.46741960053661],[-2.442766368554225,42.46637591751271],[-2.440486994534001,42.46612589661608],[-2.4408387074961495,42.46512033412721],[-2.4381425643111885,42.4650054747032],[-2.437500045214786,42.466493833422255]]]}},{"type":"Feature","properties":{"seccion":"2608903015","label":"Distrito 03 \u00b7 Secci\u00f3n 015","isvun_g":0.2},"geometry":{"type":"Polygon","coordinates":[[[-2.4487064006515897,42.46678441153582],[-2.4488205240800505,42.46686411982251],[-2.4488564195186933,42.46697353062745],[-2.4488804444131147,42.467353651851695],[-2.4495967263689034,42.46730246210905],[-2.449590534440256,42.46708858398875],[-2.449966446579711,42.4670720720574],[-2.450161581980876,42.46713748948854],[-2.4532029731602663,42.46639331486332],[-2.4526501723542258,42.466139327534165],[-2.450132946513296,42.46548959240596],[-2.4494810381281384,42.46612388016664],[-2.4492811569217787,42.466253142135045],[-2.4487064006515897,42.46678441153582]]]}},{"type":"Feature","properties":{"seccion":"2608905007","label":"Distrito 05 \u00b7 Secci\u00f3n 007","isvun_g":0.4},"geometry":{"type":"Polygon","coordinates":[[[-2.4532029731602663,42.46639331486332],[-2.4568589794222495,42.46734205889716],[-2.456936744761105,42.4670417305567],[-2.456291056516469,42.46564207546805],[-2.4532029731602663,42.46639331486332]]]}},{"type":"Feature","properties":{"seccion":"2608902012","label":"Distrito 02 \u00b7 Secci\u00f3n 012","isvun_g":0.5},"geometry":{"type":"Polygon","coordinates":[[[-2.4290045196425982,42.46681790600385],[-2.430225344562349,42.46711495032188],[-2.4306418341324503,42.46610694972086],[-2.430839303863277,42.46487848395587],[-2.42993830358172,42.46465976155447],[-2.4290045196425982,42.46681790600385]]]}},{"type":"Feature","properties":{"seccion":"2608902016","label":"Distrito 02 \u00b7 Secci\u00f3n 016","isvun_g":0.5},"geometry":{"type":"Polygon","coordinates":[[[-2.4277519390816944,42.46651005899903],[-2.4290045196425982,42.46681790600385],[-2.42993830358172,42.46465976155447],[-2.428701664957614,42.46436830611921],[-2.4277519390816944,42.46651005899903]]]}},{"type":"Feature","properties":{"seccion":"2608903001","label":"Distrito 03 \u00b7 Secci\u00f3n 001","isvun_g":0.4},"geometry":{"type":"Polygon","coordinates":[[[-2.4454462741812977,42.4664221487108],[-2.4478709389330593,42.46621195599067],[-2.4487064006515897,42.46678441153582],[-2.4492811569217787,42.466253142135045],[-2.4494810381281384,42.46612388016664],[-2.450132946513296,42.46548959240596],[-2.4467226080014566,42.46460900002087],[-2.4463834902511454,42.46535581906457],[-2.4455317089635566,42.46531405812332],[-2.4454462741812977,42.4664221487108]]]}},{"type":"Feature","properties":{"seccion":"2608902011","label":"Distrito 02 \u00b7 Secci\u00f3n 011","isvun_g":0.4},"geometry":{"type":"Polygon","coordinates":[[[-2.4263235417400235,42.46616944123795],[-2.4277519390816944,42.46651005899903],[-2.428701664957614,42.46436830611921],[-2.4272914997972297,42.464033915038165],[-2.4263235417400235,42.46616944123795]]]}},{"type":"Feature","properties":{"seccion":"2608903011","label":"Distrito 03 \u00b7 Secci\u00f3n 011","isvun_g":0.6},"geometry":{"type":"Polygon","coordinates":[[[-2.4351870174507195,42.465930324666424],[-2.437500045214786,42.466493833422255],[-2.4381425643111885,42.4650054747032],[-2.4356028565533565,42.464890332575905],[-2.4351870174507195,42.465930324666424]]]}},{"type":"Feature","properties":{"seccion":"2608905010","label":"Distrito 05 \u00b7 Secci\u00f3n 010","isvun_g":0.4},"geometry":{"type":"Polygon","coordinates":[[[-2.4604189514013766,42.46464268720916],[-2.461173298516947,42.46645816873292],[-2.4614531057286415,42.46639572219062],[-2.461465680719149,42.46587939966112],[-2.4611113410136083,42.46498878890053],[-2.462440956051638,42.46478150920779],[-2.462475432572577,42.46414947585814],[-2.4604189514013766,42.46464268720916]]]}},{"type":"Feature","properties":{"seccion":"2608903022","label":"Distrito 03 \u00b7 Secci\u00f3n 022","isvun_g":0.3},"geometry":{"type":"Polygon","coordinates":[[[-2.449506378229953,42.465327815590236],[-2.4526501723542258,42.466139327534165],[-2.4532029731602663,42.46639331486332],[-2.4545807750750632,42.466050010294175],[-2.449812345714482,42.46469564806438],[-2.449506378229953,42.465327815590236]]]}},{"type":"Feature","properties":{"seccion":"2608904001","label":"Distrito 04 \u00b7 Secci\u00f3n 001","isvun_g":0.2},"geometry":{"type":"Polygon","coordinates":[[[-2.454218218392784,42.465948322905206],[-2.4545807750750632,42.466050010294175],[-2.4584777284046253,42.46510893904255],[-2.4577960334773015,42.46360943222279],[-2.455840983831716,42.46407305250626],[-2.455823456524678,42.46414474413888],[-2.455976696860567,42.46449723137271],[-2.455345307416086,42.464357976728195],[-2.454218218392784,42.465948322905206]]]}},{"type":"Feature","properties":{"seccion":"2608903012","label":"Distrito 03 \u00b7 Secci\u00f3n 012","isvun_g":0.2},"geometry":{"type":"Polygon","coordinates":[[[-2.432202735910754,42.465206567002696],[-2.4351870174507195,42.465930324666424],[-2.435459070284081,42.46525795531633],[-2.432493930758849,42.46454573480125],[-2.432202735910754,42.465206567002696]]]}},{"type":"Feature","properties":{"seccion":"2608904002","label":"Distrito 04 \u00b7 Secci\u00f3n 002","isvun_g":0.6},"geometry":{"type":"Polygon","coordinates":[[[-2.4526557390549577,42.465500315944126],[-2.454218218392784,42.465948322905206],[-2.455345307416086,42.464357976728195],[-2.453463997893835,42.4639323309864],[-2.4526557390549577,42.465500315944126]]]}},{"type":"Feature","properties":{"seccion":"2608904017","label":"Distrito 04 \u00b7 Secci\u00f3n 017","isvun_g":0.5},"geometry":{"type":"Polygon","coordinates":[[[-2.4518154966579235,42.46527845515687],[-2.4526557390549577,42.465500315944126],[-2.453463997893835,42.4639323309864],[-2.452474083168483,42.46370642730698],[-2.4518154966579235,42.46527845515687]]]}},{"type":"Feature","properties":{"seccion":"2608903003","label":"Distrito 03 \u00b7 Secci\u00f3n 003","isvun_g":0.4},"geometry":{"type":"Polygon","coordinates":[[[-2.440868831974731,42.46511102428248],[-2.4463834902511454,42.46535581906457],[-2.4467226080014566,42.46460900002087],[-2.443791577700047,42.46385211808742],[-2.443503058824414,42.46448579519832],[-2.441263660591159,42.463919255081755],[-2.440868831974731,42.46511102428248]]]}},{"type":"Feature","properties":{"seccion":"2608904003","label":"Distrito 04 \u00b7 Secci\u00f3n 003","isvun_g":0.4},"geometry":{"type":"Polygon","coordinates":[[[-2.448297429987192,42.465015630460314],[-2.449506378229953,42.465327815590236],[-2.449812345714482,42.46469564806438],[-2.4502908555283325,42.46320598369171],[-2.4491999822467916,42.46295588267588],[-2.448297429987192,42.465015630460314]]]}},{"type":"Feature","properties":{"seccion":"2608903025","label":"Distrito 03 \u00b7 Secci\u00f3n 025","isvun_g":0.2},"geometry":{"type":"Polygon","coordinates":[[[-2.432493930758849,42.46454573480125],[-2.435459070284081,42.46525795531633],[-2.435868622319996,42.46422603532504],[-2.4356235010525515,42.46416260063256],[-2.4358056735971925,42.46371232022861],[-2.4358564963771854,42.46371389872038],[-2.436234764107121,42.46286618632586],[-2.436478576003745,42.46288539565834],[-2.43677014088649,42.46219060377477],[-2.4341100936642888,42.4615128869431],[-2.4334000018756625,42.46305654644776],[-2.4327535851580184,42.462878008666586],[-2.4324276084389904,42.463566405921085],[-2.4328807533989294,42.463692476309674],[-2.432493930758849,42.46454573480125]]]}},{"type":"Feature","properties":{"seccion":"2608903013","label":"Distrito 03 \u00b7 Secci\u00f3n 013","isvun_g":0.4},"geometry":{"type":"Polygon","coordinates":[[[-2.430839303863277,42.46487848395587],[-2.432202735910754,42.465206567002696],[-2.4328807533989294,42.463692476309674],[-2.4324276084389904,42.463566405921085],[-2.4327535851580184,42.462878008666586],[-2.4334000018756625,42.46305654644776],[-2.4341100936642888,42.4615128869431],[-2.4325904300622527,42.46110570236102],[-2.4325624952175118,42.461168786280496],[-2.429854359794403,42.46045299717176],[-2.430025088738468,42.461797034849134],[-2.4301027973030522,42.46193205718273],[-2.431264961487231,42.462228983518045],[-2.430839303863277,42.46487848395587]]]}},{"type":"Feature","properties":{"seccion":"2608904015","label":"Distrito 04 \u00b7 Secci\u00f3n 015","isvun_g":0.5},"geometry":{"type":"Polygon","coordinates":[[[-2.450743020297966,42.46496424675963],[-2.4518154966579235,42.46527845515687],[-2.452474083168483,42.46370642730698],[-2.4513646214029476,42.46345211821392],[-2.450743020297966,42.46496424675963]]]}},{"type":"Feature","properties":{"seccion":"2608903014","label":"Distrito 03 \u00b7 Secci\u00f3n 014","isvun_g":0.5},"geometry":{"type":"Polygon","coordinates":[[[-2.4381425643111885,42.4650054747032],[-2.440868831974731,42.46511102428248],[-2.4412478340694634,42.46396195284796],[-2.4388711446296107,42.46335624167188],[-2.4381425643111885,42.4650054747032]]]}},{"type":"Feature","properties":{"seccion":"2608904021","label":"Distrito 04 \u00b7 Secci\u00f3n 021","isvun_g":0.6},"geometry":{"type":"Polygon","coordinates":[[[-2.4577960334773015,42.46360943222279],[-2.4584777284046253,42.46510893904255],[-2.462359610728296,42.46417725442083],[-2.4622555603059646,42.46354015392831],[-2.462110199258103,42.46306727339119],[-2.4618573681168403,42.462533437802676],[-2.461547683373501,42.46207305733365],[-2.4609355495555607,42.46148149447847],[-2.4602377564832887,42.460943553337486],[-2.45975102689847,42.460679370969295],[-2.459035241822386,42.46040621043496],[-2.4581502418918246,42.46154692599224],[-2.4589623055188428,42.46171880810463],[-2.4595019160090517,42.46196378469411],[-2.4596960146151807,42.462106809592356],[-2.459977174864099,42.462450797073245],[-2.460227893413772,42.462968992179825],[-2.4577960334773015,42.46360943222279]]]}},{"type":"Feature","properties":{"seccion":"2608903010","label":"Distrito 03 \u00b7 Secci\u00f3n 010","isvun_g":0.5},"geometry":{"type":"Polygon","coordinates":[[[-2.4367979114138887,42.46494096904391],[-2.4381425643111885,42.4650054747032],[-2.439111607189015,42.46278340092984],[-2.4378739433578587,42.462470065617296],[-2.4367979114138887,42.46494096904391]]]}},{"type":"Feature","properties":{"seccion":"2608904006","label":"Distrito 04 \u00b7 Secci\u00f3n 006","isvun_g":0.8},"geometry":{"type":"Polygon","coordinates":[[[-2.4467836476885014,42.46462478523249],[-2.448297429987192,42.465015630460314],[-2.4491999822467916,42.46295588267588],[-2.4476723928429913,42.46260532524992],[-2.4467836476885014,42.46462478523249]]]}},{"type":"Feature","properties":{"seccion":"2608903021","label":"Distrito 03 \u00b7 Secci\u00f3n 021","isvun_g":0.2},"geometry":{"type":"Polygon","coordinates":[[[-2.4356028565533565,42.464890332575905],[-2.4367979114138887,42.46494096904391],[-2.4378739433578587,42.462470065617296],[-2.43677014088649,42.46219060377477],[-2.436478576003745,42.46288539565834],[-2.436234764107121,42.46286618632586],[-2.4358564963771854,42.46371389872038],[-2.4358056735971925,42.46371232022861],[-2.4356235010525515,42.46416260063256],[-2.435868622319996,42.46422603532504],[-2.4356028565533565,42.464890332575905]]]}},{"type":"Feature","properties":{"seccion":"2608903017","label":"Distrito 03 \u00b7 Secci\u00f3n 017","isvun_g":0.5},"geometry":{"type":"Polygon","coordinates":[[[-2.427723933640388,42.46413612836437],[-2.430839303863277,42.46487848395587],[-2.431264961487231,42.462228983518045],[-2.4301027973030522,42.46193205718273],[-2.430025088738468,42.461797034849134],[-2.429823374341393,42.46020861126699],[-2.428376772833652,42.460292541926144],[-2.4285330423358613,42.462006279856595],[-2.4291627570110403,42.46217332112191],[-2.42857372617243,42.4635910233729],[-2.4277311333929,42.46337230730876],[-2.427723933640388,42.46413612836437]]]}},{"type":"Feature","properties":{"seccion":"2608904024","label":"Distrito 04 \u00b7 Secci\u00f3n 024","isvun_g":0.4},"geometry":{"type":"Polygon","coordinates":[[[-2.449812345714482,42.46469564806438],[-2.450743020297966,42.46496424675963],[-2.4513646214029476,42.46345211821392],[-2.4502908555283325,42.46320598369171],[-2.449812345714482,42.46469564806438]]]}},{"type":"Feature","properties":{"seccion":"2608903002","label":"Distrito 03 \u00b7 Secci\u00f3n 002","isvun_g":0.5},"geometry":{"type":"Polygon","coordinates":[[[-2.4456373430309877,42.464328813430235],[-2.4467836476885014,42.46462478523249],[-2.4476723928429913,42.46260532524992],[-2.4450604182222397,42.46200545339191],[-2.44571870419121,42.46409515251415],[-2.4456373430309877,42.464328813430235]]]}},{"type":"Feature","properties":{"seccion":"2608903023","label":"Distrito 03 \u00b7 Secci\u00f3n 023","isvun_g":0.3},"geometry":{"type":"Polygon","coordinates":[[[-2.441263660591159,42.463919255081755],[-2.443503058824414,42.46448579519832],[-2.443791577700047,42.46385211808742],[-2.443707698629051,42.46383334133387],[-2.444017224997392,42.463090760527],[-2.443478697189962,42.46302673669578],[-2.4434581680046823,42.46307326454884],[-2.4420567581649224,42.46277372957281],[-2.4418705491092014,42.463211668071914],[-2.442416761839113,42.46357004701438],[-2.4414808856741246,42.46338627930396],[-2.441263660591159,42.463919255081755]]]}},{"type":"Feature","properties":{"seccion":"2608904010","label":"Distrito 04 \u00b7 Secci\u00f3n 010","isvun_g":0.4},"geometry":{"type":"Polygon","coordinates":[[[-2.454469958910055,42.46415992350159],[-2.455976696860567,42.46449723137271],[-2.455823456524678,42.46414474413888],[-2.455840983831716,42.46407305250626],[-2.4572767178223236,42.463746199582744],[-2.457186248488921,42.462771995248396],[-2.45739218266568,42.46251621714665],[-2.4558527009402176,42.46214401152683],[-2.454469958910055,42.46415992350159]]]}},{"type":"Feature","properties":{"seccion":"2608903018","label":"Distrito 03 \u00b7 Secci\u00f3n 018","isvun_g":0.3},"geometry":{"type":"Polygon","coordinates":[[[-2.443707698629051,42.46383334133387],[-2.4456373430309877,42.464328813430235],[-2.44571870419121,42.46409515251415],[-2.4450604182222397,42.46200545339191],[-2.4445208148886124,42.46187621948659],[-2.443707698629051,42.46383334133387]]]}},{"type":"Feature","properties":{"seccion":"2608904009","label":"Distrito 04 \u00b7 Secci\u00f3n 009","isvun_g":0.4},"geometry":{"type":"Polygon","coordinates":[[[-2.473603022204585,42.46149465999975],[-2.4741225450287616,42.462672916564266],[-2.479607891843364,42.463764000699115],[-2.482025752567888,42.46398549740394],[-2.4833489780803135,42.46430814996639],[-2.4826930897105917,42.4608533864879],[-2.4838071010073457,42.46060506601439],[-2.483215142347121,42.45977903298106],[-2.48381646476078,42.45946506476834],[-2.4837122514041288,42.459132947457114],[-2.473603022204585,42.46149465999975]]]}},{"type":"Feature","properties":{"seccion":"2608904019","label":"Distrito 04 \u00b7 Secci\u00f3n 019","isvun_g":0.4},"geometry":{"type":"Polygon","coordinates":[[[-2.452474083168483,42.46370642730698],[-2.454469958910055,42.46415992350159],[-2.455214180447454,42.46305450939517],[-2.4542570860178516,42.46283220012195],[-2.454288499020618,42.462787325147204],[-2.4532361563100205,42.462605475389566],[-2.452474083168483,42.46370642730698]]]}},{"type":"Feature","properties":{"seccion":"2608904029","label":"Distrito 04 \u00b7 Secci\u00f3n 029","isvun_g":0.4},"geometry":{"type":"Polygon","coordinates":[[[-2.459075281175305,42.46041777171677],[-2.45975102689847,42.460679370969295],[-2.4602377564832887,42.460943553337486],[-2.4609355495555607,42.46148149447847],[-2.461547683373501,42.46207305733365],[-2.4618573681168403,42.462533437802676],[-2.462110199258103,42.46306727339119],[-2.4622555603059646,42.46354015392831],[-2.462359610728296,42.46417725442083],[-2.4840119722746805,42.45905998620202],[-2.4868444456970646,42.458491192951335],[-2.48741380343274,42.458301268447165],[-2.4895519462693674,42.45774527874743],[-2.492111008553573,42.45717901770171],[-2.4952303593808995,42.45682094268946],[-2.4996308942794765,42.455754898914904],[-2.501128305945387,42.45554115693983],[-2.5032047220882583,42.45477813670479],[-2.5049075216224495,42.453876282455994],[-2.505267348144949,42.45355593818415],[-2.5057058478002596,42.45305217626155],[-2.5058793897865255,42.45253617934749],[-2.506053849707068,42.451790637393685],[-2.5064785822592164,42.45082773178703],[-2.510087910543855,42.448657189630765],[-2.511585659654801,42.448305580387405],[-2.5138003822832276,42.447955944936936],[-2.5177372890306313,42.44551905334417],[-2.5186948071636563,42.443837505555415],[-2.5195090613340025,42.4428411809125],[-2.5204619052442605,42.442281373037765],[-2.5215691636646316,42.44210073442304],[-2.522971034684815,42.442322595211266],[-2.5234688386434545,42.442205144371684],[-2.5237748958875508,42.440317809036856],[-2.5243352183936496,42.43868694303447],[-2.523773653220947,42.437418742797895],[-2.522953152187694,42.43593587541199],[-2.5228695803983534,42.43557385586142],[-2.523065509581512,42.43533103335942],[-2.5231759824398483,42.434859670909],[-2.521672372936426,42.43350285027841],[-2.520621251923594,42.43281425962215],[-2.5198243556329087,42.432423363655744],[-2.519252080691864,42.43236439125968],[-2.517832020956342,42.43203277848168],[-2.517062747939189,42.4317295444603],[-2.5148416436138086,42.43109986081521],[-2.5145590718909077,42.431098664497796],[-2.5126758065194794,42.430496561212266],[-2.5109473805329143,42.43013806472028],[-2.510650302633257,42.43008789599698],[-2.5103076013948473,42.43010471403947],[-2.509967370404716,42.43019484791251],[-2.509187379399566,42.43024554675467],[-2.508906892349618,42.43014131947063],[-2.5077378324148505,42.430231455499616],[-2.507323421424506,42.430267553019384],[-2.5067152515585627,42.43049159980215],[-2.5055522880047114,42.43161400023265],[-2.501408553956657,42.4330228595292],[-2.497698928296465,42.43345299083023],[-2.4961222888951733,42.433891047158184],[-2.4928460335789975,42.434902986583616],[-2.491044829004118,42.43509403136937],[-2.4849769835716553,42.43598799876677],[-2.4837239935347983,42.43710830465854],[-2.4830691353992473,42.43711291716774],[-2.4791464868708615,42.436414594982615],[-2.477681537878815,42.43632039294401],[-2.475632191710727,42.4363412053477],[-2.470746134451648,42.43658838292148],[-2.46886100853236,42.43712973609421],[-2.4654374080621544,42.43838372409502],[-2.46331119126841,42.43945403105933],[-2.461562491478061,42.44020411435443],[-2.4606932861398496,42.44062960277309],[-2.4603151296332295,42.44076020799534],[-2.458811859978258,42.4415080731868],[-2.4572045332430608,42.442206795248346],[-2.4546019114346582,42.44218237353149],[-2.4512788153292178,42.44102129956707],[-2.449776773095685,42.44568348921217],[-2.449900351261889,42.445637164695874],[-2.4495197810846547,42.44698267263476],[-2.449308840460792,42.447298748419335],[-2.448173708774703,42.45095930896565],[-2.447045549708005,42.454807025757106],[-2.456502345273306,42.45634494261809],[-2.4580649054431873,42.456478781355145],[-2.460565978834589,42.45678182188115],[-2.4605134716809722,42.45716053203745],[-2.460256059956866,42.45796208182921],[-2.4592722759134014,42.460127713011794],[-2.459075281175305,42.46041777171677]]]}},{"type":"Feature","properties":{"seccion":"2608903008","label":"Distrito 03 \u00b7 Secci\u00f3n 008","isvun_g":0.4},"geometry":{"type":"Polygon","coordinates":[[[-2.4388711446296107,42.46335624167188],[-2.4412478340694634,42.46396195284796],[-2.4414808856741246,42.46338627930396],[-2.442416761839113,42.46357004701438],[-2.4418705491092014,42.463211668071914],[-2.4395228842849996,42.462081442022196],[-2.439111607189015,42.46278340092984],[-2.4388711446296107,42.46335624167188]]]}},{"type":"Feature","properties":{"seccion":"2608904025","label":"Distrito 04 \u00b7 Secci\u00f3n 025","isvun_g":0.3},"geometry":{"type":"Polygon","coordinates":[[[-2.456735191991651,42.462357398565786],[-2.45739218266568,42.46251621714665],[-2.457186248488921,42.462771995248396],[-2.4572767178223236,42.463746199582744],[-2.460227893413772,42.462968992179825],[-2.459977174864099,42.462450797073245],[-2.4596960146151807,42.462106809592356],[-2.4595019160090517,42.46196378469411],[-2.4589623055188428,42.46171880810463],[-2.4572012273400183,42.46131981731537],[-2.456735191991651,42.462357398565786]]]}},{"type":"Feature","properties":{"seccion":"2608903024","label":"Distrito 03 \u00b7 Secci\u00f3n 024","isvun_g":0.3},"geometry":{"type":"Polygon","coordinates":[[[-2.4275622436761393,42.463299958374726],[-2.42857372617243,42.4635910233729],[-2.4291627570110403,42.46217332112191],[-2.4285330423358613,42.462006279856595],[-2.428376772833652,42.460292541926144],[-2.4306599119587853,42.46015197986133],[-2.430976530419157,42.459301951829765],[-2.42639214113122,42.45960081161094],[-2.4265378124148733,42.46012413542355],[-2.4266670446767424,42.46031624161027],[-2.427460340296697,42.463190930709125],[-2.4275622436761393,42.463299958374726]]]}},{"type":"Feature","properties":{"seccion":"2608904011","label":"Distrito 04 \u00b7 Secci\u00f3n 011","isvun_g":0.6},"geometry":{"type":"Polygon","coordinates":[[[-2.4491999822467916,42.46295588267588],[-2.452474083168483,42.46370642730698],[-2.4531636561848607,42.462706944454155],[-2.449715337277255,42.46178681673075],[-2.4491999822467916,42.46295588267588]]]}},{"type":"Feature","properties":{"seccion":"2608903019","label":"Distrito 03 \u00b7 Secci\u00f3n 019","isvun_g":0.2},"geometry":{"type":"Polygon","coordinates":[[[-2.4395228842849996,42.462081442022196],[-2.4418705491092014,42.463211668071914],[-2.4426174761427406,42.46145497181789],[-2.440036401719132,42.460878639489856],[-2.4395228842849996,42.462081442022196]]]}},{"type":"Feature","properties":{"seccion":"2608903004","label":"Distrito 03 \u00b7 Secci\u00f3n 004","isvun_g":0.2},"geometry":{"type":"Polygon","coordinates":[[[-2.4420567581649224,42.46277372957281],[-2.4434581680046823,42.46307326454884],[-2.443478697189962,42.46302673669578],[-2.444017224997392,42.463090760527],[-2.4445208148886124,42.46187621948659],[-2.4426174761427406,42.46145497181789],[-2.4420567581649224,42.46277372957281]]]}},{"type":"Feature","properties":{"seccion":"2608904014","label":"Distrito 04 \u00b7 Secci\u00f3n 014","isvun_g":0.3},"geometry":{"type":"Polygon","coordinates":[[[-2.4549001870585423,42.46191362337807],[-2.4542570860178516,42.46283220012195],[-2.455214180447454,42.46305450939517],[-2.4558527009402176,42.46214401152683],[-2.456735191991651,42.462357398565786],[-2.4572012273400183,42.46131981731537],[-2.4553686602205125,42.46089200198765],[-2.4549001870585423,42.46191362337807]]]}},{"type":"Feature","properties":{"seccion":"2608904012","label":"Distrito 04 \u00b7 Secci\u00f3n 012","isvun_g":0.5},"geometry":{"type":"Polygon","coordinates":[[[-2.4476723928429913,42.46260532524992],[-2.4491999822467916,42.46295588267588],[-2.449715337277255,42.46178681673075],[-2.448180617133382,42.46143388853138],[-2.4476723928429913,42.46260532524992]]]}},{"type":"Feature","properties":{"seccion":"2608903009","label":"Distrito 03 \u00b7 Secci\u00f3n 009","isvun_g":0.2},"geometry":{"type":"Polygon","coordinates":[[[-2.4378739433578587,42.462470065617296],[-2.439111607189015,42.46278340092984],[-2.4395228842849996,42.462081442022196],[-2.4405894690902494,42.45947970284217],[-2.439120987572628,42.459579423121895],[-2.4378739433578587,42.462470065617296]]]}},{"type":"Feature","properties":{"seccion":"2608904020","label":"Distrito 04 \u00b7 Secci\u00f3n 020","isvun_g":0.4},"geometry":{"type":"Polygon","coordinates":[[[-2.4532361563100205,42.462605475389566],[-2.454288499020618,42.462787325147204],[-2.4549001870585423,42.46191362337807],[-2.4553686602205125,42.46089200198765],[-2.454469382672344,42.460681676471594],[-2.4539187747111524,42.46164994981015],[-2.4532361563100205,42.462605475389566]]]}},{"type":"Feature","properties":{"seccion":"2608904022","label":"Distrito 04 \u00b7 Secci\u00f3n 022","isvun_g":0.4},"geometry":{"type":"Polygon","coordinates":[[[-2.449715337277255,42.46178681673075],[-2.4531636561848607,42.462706944454155],[-2.4539187747111524,42.46164994981015],[-2.450166521624983,42.46076305785694],[-2.449715337277255,42.46178681673075]]]}},{"type":"Feature","properties":{"seccion":"2608904004","label":"Distrito 04 \u00b7 Secci\u00f3n 004","isvun_g":0.6},"geometry":{"type":"Polygon","coordinates":[[[-2.4445208148886124,42.46187621948659],[-2.4476723928429913,42.46260532524992],[-2.448180617133382,42.46143388853138],[-2.4450069785443955,42.460704224235734],[-2.4445208148886124,42.46187621948659]]]}},{"type":"Feature","properties":{"seccion":"2608903020","label":"Distrito 03 \u00b7 Secci\u00f3n 020","isvun_g":0.3},"geometry":{"type":"Polygon","coordinates":[[[-2.435548273116195,42.46188128523598],[-2.4378739433578587,42.462470065617296],[-2.439120987572628,42.459579423121895],[-2.4364139023032347,42.459762646066004],[-2.436001189948914,42.460731063605664],[-2.4360545757925482,42.46074519585994],[-2.435548273116195,42.46188128523598]]]}},{"type":"Feature","properties":{"seccion":"2608903016","label":"Distrito 03 \u00b7 Secci\u00f3n 016","isvun_g":0.3},"geometry":{"type":"Polygon","coordinates":[[[-2.4325904300622527,42.46110570236102],[-2.435548273116195,42.46188128523598],[-2.4360545757925482,42.46074519585994],[-2.436001189948914,42.460731063605664],[-2.4364139023032347,42.459762646066004],[-2.4354858620692226,42.459825441161904],[-2.433585273203951,42.45919974894487],[-2.4320137096760206,42.459300821126384],[-2.4309623088579473,42.459375486950094],[-2.4306599119587853,42.46015197986133],[-2.429823374341393,42.46020861126699],[-2.429854359794403,42.46045299717176],[-2.4325624952175118,42.461168786280496],[-2.4325904300622527,42.46110570236102]]]}},{"type":"Feature","properties":{"seccion":"2608903007","label":"Distrito 03 \u00b7 Secci\u00f3n 007","isvun_g":0.4},"geometry":{"type":"Polygon","coordinates":[[[-2.440036401719132,42.460878639489856],[-2.4445208148886124,42.46187621948659],[-2.4450069785443955,42.460704224235734],[-2.442801504081798,42.46021921433123],[-2.441915383413948,42.45938242162781],[-2.4405894690902494,42.45947970284217],[-2.440036401719132,42.460878639489856]]]}},{"type":"Feature","properties":{"seccion":"2608904016","label":"Distrito 04 \u00b7 Secci\u00f3n 016","isvun_g":0.4},"geometry":{"type":"Polygon","coordinates":[[[-2.448180617133382,42.46143388853138],[-2.449715337277255,42.46178681673075],[-2.450166521624983,42.46076305785694],[-2.448649791095887,42.460399869321115],[-2.448180617133382,42.46143388853138]]]}},{"type":"Feature","properties":{"seccion":"2608904026","label":"Distrito 04 \u00b7 Secci\u00f3n 026","isvun_g":0.4},"geometry":{"type":"Polygon","coordinates":[[[-2.4507024854297073,42.46089134810334],[-2.4539187747111524,42.46164994981015],[-2.454469382672344,42.460681676471594],[-2.4546866453168006,42.46073268980139],[-2.4554298920224222,42.45960853993708],[-2.4513536220488783,42.45888406817707],[-2.450926302410467,42.45985758151325],[-2.4507024854297073,42.46089134810334]]]}},{"type":"Feature","properties":{"seccion":"2608904028","label":"Distrito 04 \u00b7 Secci\u00f3n 028","isvun_g":0.4},"geometry":{"type":"Polygon","coordinates":[[[-2.4546866453168006,42.46073268980139],[-2.4581502418918246,42.46154692599224],[-2.459035241822386,42.46040621043496],[-2.4584502598840277,42.46016715096942],[-2.4579036420455407,42.46003012278339],[-2.4554298920224222,42.45960853993708],[-2.4546866453168006,42.46073268980139]]]}},{"type":"Feature","properties":{"seccion":"2608904018","label":"Distrito 04 \u00b7 Secci\u00f3n 018","isvun_g":0.4},"geometry":{"type":"Polygon","coordinates":[[[-2.4450069785443955,42.460704224235734],[-2.448180617133382,42.46143388853138],[-2.448649791095887,42.460399869321115],[-2.4472630604804233,42.46006781859216],[-2.447070792016349,42.46053599368865],[-2.4451983339785537,42.46024290780061],[-2.4450069785443955,42.460704224235734]]]}},{"type":"Feature","properties":{"seccion":"2608904007","label":"Distrito 04 \u00b7 Secci\u00f3n 007","isvun_g":0.3},"geometry":{"type":"Polygon","coordinates":[[[-2.448649791095887,42.460399869321115],[-2.4507024854297073,42.46089134810334],[-2.450926302410467,42.45985758151325],[-2.4513536220488783,42.45888406817707],[-2.449458813501678,42.458546897390256],[-2.448649791095887,42.460399869321115]]]}},{"type":"Feature","properties":{"seccion":"2608903005","label":"Distrito 03 \u00b7 Secci\u00f3n 005","isvun_g":0.5},"geometry":{"type":"Polygon","coordinates":[[[-2.443120625138644,42.46028938636349],[-2.4450069785443955,42.460704224235734],[-2.4454468418946806,42.459645866279196],[-2.4435356118566394,42.4592303591782],[-2.443120625138644,42.46028938636349]]]}},{"type":"Feature","properties":{"seccion":"2608904005","label":"Distrito 04 \u00b7 Secci\u00f3n 005","isvun_g":0.4},"geometry":{"type":"Polygon","coordinates":[[[-2.4451983339785537,42.46024290780061],[-2.447070792016349,42.46053599368865],[-2.4472630604804233,42.46006781859216],[-2.448649791095887,42.460399869321115],[-2.449088193434674,42.45943378177811],[-2.4474780884916285,42.45905779202827],[-2.44757191507668,42.45884364002718],[-2.4458703640258466,42.458579665467234],[-2.4451983339785537,42.46024290780061]]]}},{"type":"Feature","properties":{"seccion":"2608904023","label":"Distrito 04 \u00b7 Secci\u00f3n 023","isvun_g":0.5},"geometry":{"type":"Polygon","coordinates":[[[-2.4584502598840277,42.46016715096942],[-2.459075281175305,42.46041777171677],[-2.4592722759134014,42.460127713011794],[-2.460256059956866,42.45796208182921],[-2.4605134716809722,42.45716053203745],[-2.460565978834589,42.45678182188115],[-2.4580649054431873,42.456478781355145],[-2.456502345273306,42.45634494261809],[-2.4554298920224222,42.45960853993708],[-2.4579036420455407,42.46003012278339],[-2.4584502598840277,42.46016715096942]]]}},{"type":"Feature","properties":{"seccion":"2608903006","label":"Distrito 03 \u00b7 Secci\u00f3n 006","isvun_g":0.4},"geometry":{"type":"Polygon","coordinates":[[[-2.4354858620692226,42.459825441161904],[-2.441915383413948,42.45938242162781],[-2.442801504081798,42.46021921433123],[-2.443120625138644,42.46028938636349],[-2.4435356118566394,42.4592303591782],[-2.4454468418946806,42.459645866279196],[-2.4460097271405337,42.45821810820207],[-2.443556186607358,42.45822498005022],[-2.438312638667989,42.458579531731445],[-2.435156253491963,42.45906950740536],[-2.433585273203951,42.45919974894487],[-2.4354858620692226,42.459825441161904]]]}},{"type":"Feature","properties":{"seccion":"2608902007","label":"Distrito 02 \u00b7 Secci\u00f3n 007","isvun_g":0.7},"geometry":{"type":"Polygon","coordinates":[[[-2.4193049641570115,42.45325448311729],[-2.4191612915541767,42.45436890709428],[-2.4189218886510817,42.45540101838484],[-2.418245064209133,42.45660371245096],[-2.4173522096448345,42.45739243388274],[-2.4163189656663686,42.45819211729885],[-2.41503200264786,42.45977133509337],[-2.41476066047129,42.45997853018231],[-2.4195214532654643,42.4598786380081],[-2.4195148492253327,42.45994579195426],[-2.424355312554449,42.459708965615185],[-2.426223932182471,42.457138359436314],[-2.4272306947292632,42.45607766260757],[-2.4271721789225653,42.456052474099245],[-2.4282036426884037,42.45504040710619],[-2.4280851690669696,42.454585823807484],[-2.427813018875501,42.454175871617934],[-2.427201228752193,42.454036617312],[-2.4266642176509654,42.45331832718122],[-2.4265695458641843,42.45275363310793],[-2.4261928027760047,42.452381255612266],[-2.426230545493884,42.4523628947325],[-2.4258232262603743,42.45090536129932],[-2.4264555791423597,42.45029020061936],[-2.4260740639278366,42.45025680630637],[-2.4259484949030825,42.450526358531214],[-2.422552469087967,42.45220066860132],[-2.4213349611885993,42.45370016331176],[-2.421178774761751,42.453643701828504],[-2.4210402234840274,42.45381943783666],[-2.4193049641570115,42.45325448311729]]]}},{"type":"Feature","properties":{"seccion":"2608902019","label":"Distrito 02 \u00b7 Secci\u00f3n 019","isvun_g":0.6},"geometry":{"type":"Polygon","coordinates":[[[-2.4272306947292632,42.45607766260757],[-2.426223932182471,42.457138359436314],[-2.424355312554449,42.459708965615185],[-2.430976530419157,42.459301951829765],[-2.4309623088579473,42.459375486950094],[-2.4347907236795865,42.45911705543134],[-2.4347500556038386,42.45519486118841],[-2.428156984022494,42.45562280572415],[-2.4272306947292632,42.45607766260757]]]}},{"type":"Feature","properties":{"seccion":"2608904027","label":"Distrito 04 \u00b7 Secci\u00f3n 027","isvun_g":0.5},"geometry":{"type":"Polygon","coordinates":[[[-2.451310107467865,42.45887633026491],[-2.4554298920224222,42.45960853993708],[-2.456502345273306,42.45634494261809],[-2.4524991612285656,42.45570468240615],[-2.4521595892941757,42.456824351065805],[-2.4517907452934145,42.457840136259556],[-2.451737077794364,42.45783042274163],[-2.451310107467865,42.45887633026491]]]}},{"type":"Feature","properties":{"seccion":"2608904013","label":"Distrito 04 \u00b7 Secci\u00f3n 013","isvun_g":0.6},"geometry":{"type":"Polygon","coordinates":[[[-2.4458703640258466,42.458579665467234],[-2.44757191507668,42.45884364002718],[-2.4474780884916285,42.45905779202827],[-2.449088193434674,42.45943378177811],[-2.449458813501678,42.458546897390256],[-2.4479358925236543,42.45829271702243],[-2.4469068136272565,42.45823210277211],[-2.445990640675595,42.45826761448316],[-2.4458703640258466,42.458579665467234]]]}},{"type":"Feature","properties":{"seccion":"2608902018","label":"Distrito 02 \u00b7 Secci\u00f3n 018","isvun_g":0.6},"geometry":{"type":"Polygon","coordinates":[[[-2.4347494030604,42.45513205805308],[-2.4347907236795865,42.45911705543134],[-2.438312638667989,42.458579531731445],[-2.443556186607358,42.45822498005022],[-2.4448275868001743,42.45823078511565],[-2.444898733415731,42.45760451760182],[-2.4442376564671138,42.457573487561426],[-2.4451193279731926,42.45548484817256],[-2.4450134007277367,42.45479666467786],[-2.4447792134286135,42.45451716435962],[-2.440124122857574,42.454844366991175],[-2.4347494030604,42.45513205805308]]]}},{"type":"Feature","properties":{"seccion":"2608904008","label":"Distrito 04 \u00b7 Secci\u00f3n 008","isvun_g":0.3},"geometry":{"type":"Polygon","coordinates":[[[-2.4476510953649355,42.458261717290746],[-2.451310107467865,42.45887633026491],[-2.451737077794364,42.45783042274163],[-2.4517907452934145,42.457840136259556],[-2.4521595892941757,42.456824351065805],[-2.4524991612285656,42.45570468240615],[-2.447045549708005,42.454807025757106],[-2.44672840954792,42.45582709510695],[-2.446775293875298,42.45583371721491],[-2.445990640675595,42.45826761448316],[-2.4469068136272565,42.45823210277211],[-2.4476510953649355,42.458261717290746]]]}},{"type":"Feature","properties":{"seccion":"2608902014","label":"Distrito 02 \u00b7 Secci\u00f3n 014","isvun_g":0.3},"geometry":{"type":"Polygon","coordinates":[[[-2.4448275868001743,42.45823078511565],[-2.4460097271405337,42.45821810820207],[-2.446775293875298,42.45583371721491],[-2.44672840954792,42.45582709510695],[-2.447045549708005,42.454807025757106],[-2.445258280906788,42.4545259689399],[-2.4447792134286135,42.45451716435962],[-2.4450134007277367,42.45479666467786],[-2.4451193279731926,42.45548484817256],[-2.4442376564671138,42.457573487561426],[-2.444898733415731,42.45760451760182],[-2.4448275868001743,42.45823078511565]]]}},{"type":"Feature","properties":{"seccion":"2608902020","label":"Distrito 02 \u00b7 Secci\u00f3n 020","isvun_g":0.4},"geometry":{"type":"Polygon","coordinates":[[[-2.4260740639278366,42.45025680630637],[-2.4264555791423597,42.45029020061936],[-2.4258232262603743,42.45090536129932],[-2.426230545493884,42.4523628947325],[-2.4261928027760047,42.452381255612266],[-2.4265695458641843,42.45275363310793],[-2.4266642176509654,42.45331832718122],[-2.427201228752193,42.454036617312],[-2.427813018875501,42.454175871617934],[-2.4280851690669696,42.454585823807484],[-2.4282036426884037,42.45504040710619],[-2.4271721789225653,42.456052474099245],[-2.4272306947292632,42.45607766260757],[-2.428156984022494,42.45562280572415],[-2.4347500556038386,42.45519486118841],[-2.4347494030604,42.45513205805308],[-2.440124122857574,42.454844366991175],[-2.4447792134286135,42.45451716435962],[-2.445258280906788,42.4545259689399],[-2.447045549708005,42.454807025757106],[-2.448173708774703,42.45095930896565],[-2.449308840460792,42.447298748419335],[-2.4495197810846547,42.44698267263476],[-2.449900351261889,42.445637164695874],[-2.449776773095685,42.44568348921217],[-2.4512788153292178,42.44102129956707],[-2.4485939930887044,42.44038165741598],[-2.446280709906986,42.439334303430776],[-2.4449227251934866,42.438422180597094],[-2.442821335292576,42.43745010173627],[-2.4404890660229994,42.43584586361985],[-2.4324049929164473,42.433144961054346],[-2.4324260898401313,42.433494475689116],[-2.4323238513661227,42.4340060372894],[-2.432337857922622,42.434366879227674],[-2.4313189408314617,42.4360881569316],[-2.431219787252716,42.43636183170428],[-2.4313111479063307,42.43711313876164],[-2.430804673652706,42.43750755859693],[-2.4306517489527977,42.43792962409044],[-2.430528113644594,42.43879954332475],[-2.4299895129448297,42.439925917802086],[-2.4300233688119515,42.44101758482395],[-2.4294594277609143,42.44151009495513],[-2.429594450408095,42.44269838809098],[-2.427736630716641,42.44668744986376],[-2.427687992090288,42.44700035509133],[-2.427372478273153,42.44746928484738],[-2.4260740639278366,42.45025680630637]]]}},{"type":"Feature","properties":{"seccion":"2608905004","label":"Distrito 05 \u00b7 Secci\u00f3n 004","isvun_g":0.4},"geometry":{"type":"Polygon","coordinates":[[[-2.5074792713444216,42.52065929544714],[-2.507919367611403,42.52084240012838],[-2.5092994283773686,42.52103928124307],[-2.5095304500858444,42.52100359605168],[-2.5101330007291645,42.52086082654796],[-2.5108828576944826,42.52053979023087],[-2.511555886517283,42.520154851399326],[-2.512093485294415,42.51973552343978],[-2.5125608538106237,42.519139934826455],[-2.513506954770819,42.516031459515546],[-2.5144812924325715,42.513738295303575],[-2.5159739787508206,42.511593514854184],[-2.5170090892244232,42.51025735743154],[-2.5191926146616024,42.50773917430855],[-2.521166807435991,42.50624564349703],[-2.522311413853279,42.50546355850899],[-2.523390647060885,42.50462968003521],[-2.5252948255690386,42.50329042606398],[-2.52856595095908,42.50118941413462],[-2.532515379808077,42.499001746781616],[-2.5342794257766172,42.497949377045316],[-2.534870061517936,42.497535569100734],[-2.5357663210393993,42.49676697776337],[-2.536185654939389,42.49627756585476],[-2.5364768045535007,42.49567987223946],[-2.5365885540002595,42.49527507270254],[-2.536625769838474,42.49486997169956],[-2.536598078465624,42.494397066307286],[-2.536691036871476,42.49409390783518],[-2.5366553499994007,42.49260689994107],[-2.5364364185722468,42.49115890221013],[-2.536310851811217,42.49086120962484],[-2.535946733601757,42.490427467298794],[-2.5353774926752544,42.4899658756147],[-2.533205621809175,42.488695765074866],[-2.5310994913662177,42.48769939661508],[-2.529909484781263,42.48753458051834],[-2.529049625037779,42.48709878163458],[-2.5283725069150855,42.48660804498753],[-2.5281039045750897,42.48627375642984],[-2.5278900586283326,42.48588119060488],[-2.52791675481427,42.48547659421138],[-2.5281641430681026,42.48516648377983],[-2.529370855975879,42.48468744275967],[-2.5310871758523783,42.484362968805655],[-2.535963243576655,42.484294323974375],[-2.5360353178493655,42.4826761290524],[-2.535969382115357,42.48185166972503],[-2.5383705172240356,42.48192357868333],[-2.539605170814635,42.48115181468757],[-2.5400825656429205,42.4799321931114],[-2.5408862648678774,42.477502351379016],[-2.538764235493716,42.47238074810731],[-2.5334578804441072,42.470151355727324],[-2.533468701232495,42.469671639369025],[-2.533394742184986,42.46935156104975],[-2.5316534717030237,42.4690351841251],[-2.525262388886796,42.46649575679486],[-2.5214698783568426,42.46300437536384],[-2.52150224665312,42.46268416736861],[-2.5214283582003807,42.46261203801942],[-2.5216035674644073,42.461681838589925],[-2.5216800185594597,42.46092550740441],[-2.522926643365497,42.457866564493536],[-2.522301573933094,42.45759458693126],[-2.521814479492142,42.45747128310825],[-2.520671200403751,42.45695471233979],[-2.52028360061478,42.45490014072246],[-2.520509348443101,42.45402770292801],[-2.521114150253873,42.450162073260124],[-2.521164851407542,42.449264782103434],[-2.5207479499723267,42.447584807087026],[-2.5218671762327958,42.44594032376829],[-2.521905439102246,42.444094320151784],[-2.523185378482034,42.44366625746818],[-2.5232509604339652,42.44351885531648],[-2.5234688386434545,42.442205144371684],[-2.522971034684815,42.442322595211266],[-2.5215691636646316,42.44210073442304],[-2.5204619052442605,42.442281373037765],[-2.5195090613340025,42.4428411809125],[-2.5186948071636563,42.443837505555415],[-2.5177372890306313,42.44551905334417],[-2.5138003822832276,42.447955944936936],[-2.511585659654801,42.448305580387405],[-2.510087910543855,42.448657189630765],[-2.5064785822592164,42.45082773178703],[-2.506053849707068,42.451790637393685],[-2.5058793897865255,42.45253617934749],[-2.5057058478002596,42.45305217626155],[-2.505267348144949,42.45355593818415],[-2.5049075216224495,42.453876282455994],[-2.5032047220882583,42.45477813670479],[-2.501128305945387,42.45554115693983],[-2.4996308942794765,42.455754898914904],[-2.4952303593808995,42.45682094268946],[-2.492111008553573,42.45717901770171],[-2.4895519462693674,42.45774527874743],[-2.4875091362628368,42.45827648075349],[-2.4877709247573967,42.45863519020264],[-2.4883300218977835,42.45913040038354],[-2.487315217980102,42.45947167951453],[-2.485737976396872,42.46008670965018],[-2.485561655928678,42.46020006846324],[-2.4853321448155117,42.46020026018733],[-2.4856113239111273,42.46046913575388],[-2.4858448160583286,42.460614999434505],[-2.4863436436433677,42.460627982425336],[-2.4869493188841476,42.46116925109319],[-2.4872301404485895,42.461124184570195],[-2.4874793334180656,42.46118232190909],[-2.4877112061687585,42.46164211818687],[-2.4880530542955284,42.46190712524615],[-2.488535512732629,42.4621036901034],[-2.4889096811529674,42.46210481072451],[-2.4917957343332486,42.461677267117764],[-2.4929644638233968,42.46180698303639],[-2.493959051751517,42.462567436677226],[-2.4944417742981964,42.46270658943179],[-2.494924213072689,42.46291460318377],[-2.4959060758485165,42.46299782944805],[-2.4979306547930427,42.4635317136288],[-2.4985505329912505,42.46444023993236],[-2.4996558788266414,42.46483368783296],[-2.502819961684269,42.46506088912631],[-2.5022260592708725,42.46923699223549],[-2.499278163229131,42.46946950083552],[-2.4985731459679794,42.47028235514753],[-2.4979624759981367,42.47090036200584],[-2.4977101859134705,42.47157679725919],[-2.4978650670787963,42.471829755763515],[-2.4978953940772035,42.472036437027015],[-2.4977539169317406,42.47231148547938],[-2.497560271876698,42.47254306188112],[-2.497253657664048,42.47261991764253],[-2.4970188550213357,42.47283730253114],[-2.4957675812162985,42.4737518382329],[-2.4956174515416256,42.474009896416625],[-2.4954855101964415,42.474083856992394],[-2.4953906528039678,42.4743934730521],[-2.4958889193320144,42.474567095697346],[-2.4968999572074972,42.47517836353894],[-2.497242442642907,42.47531709304442],[-2.497814355925114,42.47653537444188],[-2.4981221919156935,42.47751186043887],[-2.49900797380188,42.47826047279369],[-2.4992810936306147,42.480097662348165],[-2.5000892826225307,42.480765699686735],[-2.500040420015747,42.481270565971016],[-2.5005065739317454,42.481685105657625],[-2.500378936965377,42.482384862063014],[-2.5009217592210744,42.48312098926711],[-2.501060708603893,42.48346571453755],[-2.500871723994654,42.48391278888735],[-2.5007465833068654,42.48400424685785],[-2.5000766754809556,42.48383014823678],[-2.4992684438437127,42.483162110946495],[-2.497373379354677,42.48133167679488],[-2.496532923401097,42.480927505910316],[-2.494818680619349,42.48063553866153],[-2.4927757974385933,42.48061803168593],[-2.4921986415846535,42.48065075362639],[-2.4919952273076658,42.48081083639596],[-2.492008432858287,42.48137327155052],[-2.4918957112688007,42.482210792857586],[-2.4914111366228973,42.48247333444761],[-2.4896827267292627,42.48548675934314],[-2.487204734700804,42.4850661405101],[-2.4786788579994496,42.483892426026046],[-2.475860638553108,42.48286220698847],[-2.4742731811445746,42.48213418374003],[-2.469298357311099,42.47872121900567],[-2.4669214766433423,42.476762500675356],[-2.4660546818910403,42.47537096432159],[-2.464410474175496,42.47350635168308],[-2.4640948450717337,42.47297430966976],[-2.462337405410582,42.4692268818253],[-2.4621370490489736,42.468669081939964],[-2.461886018713154,42.46866555136544],[-2.4604127617503893,42.46823824441049],[-2.460306432872144,42.46919102923033],[-2.4578410180182826,42.469038413381234],[-2.4577814303056256,42.46968509517325],[-2.456191365165847,42.46958534432356],[-2.4559470636120344,42.47044809564732],[-2.456304036966894,42.47055155125174],[-2.456667357076131,42.47072285082716],[-2.456604665140345,42.47078333882762],[-2.4569205196654895,42.47091895473338],[-2.4572071762482484,42.471866196792114],[-2.4571698069787886,42.47239959437302],[-2.45685463988186,42.47269565304049],[-2.4574556012474966,42.47322744948534],[-2.4578964400612637,42.47372660112405],[-2.45860394642468,42.47503606787478],[-2.459822176522473,42.47775081099991],[-2.460594282635293,42.4791573180796],[-2.460752805192914,42.47928999253554],[-2.461098503710784,42.47986602743881],[-2.4620604974972133,42.480902107827404],[-2.464049162252001,42.482503875951856],[-2.467371574648261,42.48429845092859],[-2.4700154249021034,42.485635126979474],[-2.47431546972442,42.48725130219279],[-2.4801139948860085,42.48872629082291],[-2.4820091111158877,42.488884897732284],[-2.4847345407831516,42.488911060971496],[-2.4861572092181192,42.488999670248475],[-2.4902985565847975,42.48938251668208],[-2.492448665816735,42.48945059512617],[-2.4950772920577498,42.48968734586148],[-2.4969189628329187,42.48990707622304],[-2.5004955784135827,42.490451794261254],[-2.5022707967708926,42.49066711897757],[-2.50391798813397,42.490762697416564],[-2.5058220356377374,42.49068426969583],[-2.5091573372421228,42.49103679324333],[-2.5116104382035322,42.491048992301664],[-2.5127905034478304,42.49117789317229],[-2.5133962883259944,42.49132005349587],[-2.514259904341121,42.49165692388128],[-2.5145495765515435,42.49179731642933],[-2.5154938138161897,42.49243034990444],[-2.5159293326628895,42.49286023133332],[-2.516884516722361,42.49442126228563],[-2.5177252162664128,42.49671173370396],[-2.5178360382067138,42.497334690225564],[-2.517639425174584,42.49830263024439],[-2.517371054071298,42.499032932739354],[-2.5163261034585958,42.50097383412754],[-2.5157827523054865,42.501669632148435],[-2.5150170458586567,42.502400050662466],[-2.5138396069767754,42.50311093117607],[-2.5132957999999204,42.50326327750986],[-2.5122575510172434,42.503292637125426],[-2.5116241615008272,42.503518733501934],[-2.5098332705169497,42.50450938593686],[-2.5091462541075646,42.50508143939049],[-2.508852566647951,42.50541074315316],[-2.5085305604376926,42.50598288862681],[-2.508226371750518,42.50671854171998],[-2.5076796621208337,42.50881202085439],[-2.506477079646723,42.51101297318171],[-2.506196240472901,42.51177413713866],[-2.505969068493468,42.51202630699913],[-2.5057167093752684,42.51212226362372],[-2.5047912530008563,42.51221665222704],[-2.5045549579628874,42.51233797591569],[-2.5044399017859873,42.51244155747158],[-2.5040864063098627,42.51308163552555],[-2.5040622800317864,42.51345721139704],[-2.5048444044836886,42.51585525754267],[-2.5066194735948253,42.51803519269492],[-2.506378686451122,42.519821144559955],[-2.506527868763732,42.520139434263726],[-2.5074792713444216,42.52065929544714]]]}}]}