{"type":"FeatureCollection","crs":{"type":"name","properties":{"name":"EPSG:4326"}},"features":[{"type":"Feature","id":1,"geometry":{"type":"Polygon","coordinates":[[[-2.53737274075934,42.4831734476561],[-2.53720689408283,42.4807312837813],[-2.53981001502012,42.4808230892738],[-2.54088143582953,42.4801379848398],[-2.54212377729044,42.4763818260201],[-2.53976839169786,42.4706972374472],[-2.53477659136655,42.4688568117521],[-2.53462383702043,42.4681957893638],[-2.53239618483599,42.4677395794777],[-2.52963308709724,42.4666517082694],[-2.52657195673038,42.4653046992121],[-2.52266523701104,42.4614914253486],[-2.52305013785354,42.4594476944152],[-2.52420589798373,42.4566428312613],[-2.52305126290543,42.4563505632875],[-2.5219079538889,42.4558339945029],[-2.52152030741621,42.4537793862694],[-2.52217535470879,42.451247580671],[-2.5224101182323,42.4479906642974],[-2.52222090177315,42.4472227502894],[-2.5222265180393,42.4464837458878],[-2.52333678866182,42.4447758901549],[-2.52325036830979,42.4432157921348],[-2.5244177611707,42.4428183457498],[-2.52501137667366,42.4391967255082],[-2.52562537441145,42.4374095153966],[-2.52418953302049,42.4348147131882],[-2.52410595182818,42.4344526875013],[-2.52456851002864,42.4338793957773],[-2.52290868258956,42.4323816540499],[-2.52129820544775,42.4313266458678],[-2.52048832637513,42.4312431977751],[-2.51906823481113,42.4309115943543],[-2.51754057893453,42.430309429896],[-2.51657067089968,42.429980769057],[-2.51579520978106,42.4299774964241],[-2.51391189991421,42.4293754021129],[-2.51218343711588,42.4290169170568],[-2.51188635237321,42.4289667501751],[-2.51154364592247,42.428983571994],[-2.5112034099094,42.429073711942],[-2.51042340631511,42.4291244202156],[-2.51014291226556,42.429020193287],[-2.50866238895804,42.4291085094099],[-2.50795124015758,42.429370504405],[-2.50682382485957,42.430471231422],[-2.50264449904432,42.4319018720335],[-2.498934817188,42.4323320519424],[-2.49735815905177,42.4327701341941],[-2.49408186588533,42.433782128702],[-2.48895895968821,42.4343429000645],[-2.48626737244126,42.4348183608384],[-2.48495970872352,42.4359875892156],[-2.48430484039602,42.4359922090329],[-2.48038210824762,42.4352939151418],[-2.47891713241967,42.4351997273453],[-2.47686775014648,42.4352205619391],[-2.47198161206171,42.4354677972607],[-2.47009646398055,42.4360091810386],[-2.46667282858812,42.4372632316726],[-2.46454659564881,42.4383335822887],[-2.46279787921873,42.4390836996128],[-2.46192866737402,42.439509205745],[-2.46155050695029,42.439639817883],[-2.46004722539908,42.4403877138816],[-2.45843988419324,42.4410864673263],[-2.45583721561496,42.4410620732158],[-2.45256283260858,42.4399126353196],[-2.44982915708988,42.439261385864],[-2.44751581300432,42.4382140363085],[-2.44433422474464,42.4360770384843],[-2.44195810168498,42.434605901401],[-2.4384301566264,42.4336400762882],[-2.43674134583637,42.4329615674821],[-2.4336323760333,42.4319029107505],[-2.43366083507942,42.4323742409382],[-2.43355860464584,42.4328858139889],[-2.43357261878128,42.4332466624632],[-2.43244385360094,42.4351535813325],[-2.43254594463957,42.4359929887452],[-2.43193496232863,42.4364688092479],[-2.43176292921578,42.4376794352175],[-2.43122434143015,42.4388058378788],[-2.43122094469078,42.4396652579051],[-2.43059551926774,42.4403077884334],[-2.43062376427525,42.4417540106987],[-2.43000893376524,42.4427270177974],[-2.42997595742446,42.4433199848891],[-2.42913226204422,42.4445334769981],[-2.42892291875762,42.4458804410892],[-2.42808951881619,42.4471191043229],[-2.42777951531235,42.4478584738492],[-2.42686497044201,42.4490688030426],[-2.42710049569126,42.4493116991353],[-2.42694417373457,42.4494380808624],[-2.42659381405321,42.4491728159324],[-2.426353901911,42.4493043633654],[-2.42628846004436,42.4494262457844],[-2.42593415593649,42.4497530081545],[-2.42572413456111,42.4498069818665],[-2.42558161090255,42.4499001992944],[-2.42543569410196,42.4501251557111],[-2.4250769968059,42.4503729117402],[-2.42399166618242,42.450715721613],[-2.42355554355345,42.4511703091221],[-2.42264897477031,42.451881986724],[-2.4226446751116,42.4522310342945],[-2.42227516796459,42.4526997312673],[-2.42012676943483,42.4520002907405],[-2.41669773541213,42.4500700362629],[-2.41236425590563,42.4484438569581],[-2.41174056527484,42.4478313179207],[-2.40916581435079,42.4462321317672],[-2.40685938605179,42.4459787720624],[-2.4033481117259,42.4452194510765],[-2.39894286182357,42.4440618698192],[-2.39740786927769,42.4437921883186],[-2.39497633089292,42.44299595376],[-2.39121622764674,42.4415957983671],[-2.38351241916274,42.440336030743],[-2.38033064474342,42.4397607766982],[-2.37735287883225,42.4393034399615],[-2.37285087896487,42.4367448093852],[-2.37019504606445,42.4357863362302],[-2.36863555688541,42.4355307237236],[-2.36606028975052,42.43573355412],[-2.36298555893637,42.4362601962108],[-2.36068201206518,42.4359213559456],[-2.35606579200265,42.4350974114761],[-2.35466518515011,42.4346140222791],[-2.35205784009719,42.4335043721888],[-2.35186358203862,42.4344463751599],[-2.35137871975206,42.4352964943975],[-2.34999087967532,42.438368749378],[-2.34931018641595,42.4384454003947],[-2.34865589905047,42.438449249493],[-2.34790518637522,42.4383132243356],[-2.34629042935978,42.4378447243143],[-2.34429158898558,42.4370639311152],[-2.34441933408493,42.4404266626201],[-2.34376295129914,42.4423537757659],[-2.34196798903145,42.4446210808579],[-2.34222645598612,42.4464387869801],[-2.34388718544523,42.4466801173532],[-2.34632648857655,42.4473005119687],[-2.34584224322492,42.4487990343077],[-2.34570897628816,42.4490783583393],[-2.34566399219943,42.4496381782191],[-2.3455508197145,42.4498792504867],[-2.3455343108597,42.4500516190467],[-2.34504269736254,42.4502926013821],[-2.344919537007,42.4504649006943],[-2.34459385022598,42.4507468147734],[-2.34422480263248,42.4512213870171],[-2.34423392265734,42.4515361946993],[-2.34675207924499,42.4517724798758],[-2.34809944173583,42.4532930517926],[-2.34833410183728,42.4554800276408],[-2.34867109489505,42.4571474939214],[-2.34921443110107,42.458199135941],[-2.3495177841184,42.4591955586877],[-2.35073307667011,42.4613481930244],[-2.350742249755,42.4637447118087],[-2.35154348994007,42.464860572617],[-2.35260751472498,42.4656440664801],[-2.35508473327377,42.4662295449172],[-2.35724038393653,42.4671714210839],[-2.35798478157238,42.467020692011],[-2.35836206066051,42.4668943813303],[-2.35934520491725,42.4657084921129],[-2.3611244946996,42.4627440496578],[-2.36153205126311,42.462447955968],[-2.36306571011437,42.4616908976765],[-2.36363192507326,42.4616280296695],[-2.36587368941917,42.4619887126686],[-2.36748141643415,42.4624582469102],[-2.36839286403938,42.4628027061397],[-2.36931464395559,42.4633063471699],[-2.37198156819477,42.4651437826191],[-2.37223631825145,42.4655534148179],[-2.37232585475437,42.466368036915],[-2.37208681495451,42.4672584008142],[-2.3715120366511,42.4686837633047],[-2.37145506999542,42.4697088600355],[-2.37184897844753,42.4705826988921],[-2.37217987859845,42.4709578951504],[-2.37278567901581,42.4713117208189],[-2.37510989590493,42.4720329986836],[-2.37663531696626,42.4728242761791],[-2.37738474630896,42.4729903647732],[-2.37778489335807,42.4729868646117],[-2.37862098676908,42.4728780169666],[-2.3791790655614,42.4726746262926],[-2.37959853184674,42.4724023079798],[-2.3805529859315,42.4713430657895],[-2.38317690818769,42.4707024903873],[-2.38513129867044,42.4705153117918],[-2.38665862989183,42.4702232398703],[-2.38902100771327,42.4702225294058],[-2.39033108521136,42.4706041486222],[-2.39393617231644,42.4726387847118],[-2.39559491157587,42.4729392437108],[-2.39725142321458,42.4729285147988],[-2.39878730878723,42.4725181694376],[-2.40000871493021,42.4714322461609],[-2.40111954942762,42.472548840816],[-2.40210229798259,42.4738723424943],[-2.40241133471528,42.4744182687478],[-2.4053532779314,42.4779034438484],[-2.40679227144614,42.4796954140717],[-2.40706220385755,42.4798930481853],[-2.40747901804218,42.4803197396239],[-2.40821645942202,42.4812467419032],[-2.40842273242311,42.4816034481003],[-2.40881194011888,42.4820954662923],[-2.40953692588835,42.4825140134706],[-2.41041850161253,42.4831927309194],[-2.41076720294399,42.4836086143057],[-2.4113209326149,42.4841407341672],[-2.4119683599518,42.4846731517042],[-2.4122476561044,42.484992401138],[-2.41244984528407,42.4854121201328],[-2.41283151756045,42.4859611823223],[-2.41292302627659,42.4864159056291],[-2.41391044141369,42.4884100839178],[-2.41468134836549,42.4895789309825],[-2.41530480876986,42.490302582158],[-2.41566596481238,42.4905384860219],[-2.42058230303081,42.4892342721036],[-2.42397730221069,42.4888174102549],[-2.42825302006077,42.4896335513069],[-2.43098425571878,42.489626771318],[-2.43355678261935,42.4896958419491],[-2.43529676843104,42.4896033790523],[-2.43850820069287,42.4891218181769],[-2.43952144166116,42.4910338362021],[-2.4416051996202,42.4921074639479],[-2.44506933418239,42.4936803898976],[-2.44701268099038,42.4954189017205],[-2.44880462693192,42.4968750758837],[-2.45127491530508,42.4964569190112],[-2.45915842272296,42.4949341743323],[-2.46667074575828,42.4937846231214],[-2.47233363279088,42.4925910447006],[-2.474249163568,42.4916961086481],[-2.4741412620096,42.490105066755],[-2.47515277358161,42.4892245603248],[-2.47598575084169,42.4881592180331],[-2.4766339246159,42.4877578613958],[-2.47743191555042,42.486636592964],[-2.48135066280281,42.4876066457897],[-2.48324581584166,42.4877652349372],[-2.48597129314061,42.4877913692359],[-2.48739398914125,42.487879965048],[-2.49242249710051,42.4883701099522],[-2.49652123106989,42.4886118036514],[-2.5007687389861,42.4892150463969],[-2.50350789227537,42.4895472739471],[-2.5052240559454,42.4896468351929],[-2.50772004874119,42.4896148948711],[-2.51039456056048,42.4899168809189],[-2.51284770425809,42.4899290541421],[-2.51463203563986,42.4902316571248],[-2.51578690903858,42.4906773611309],[-2.51673117560324,42.4913103966171],[-2.51716671007557,42.4917402824476],[-2.51812194207395,42.4933013346485],[-2.51896270116765,42.4955918422493],[-2.51907353811322,42.4962148098252],[-2.51887694001874,42.4971827717271],[-2.51860857872288,42.4979130913756],[-2.51756364834364,42.499854043289],[-2.51702030134578,42.5005498613466],[-2.51625459607271,42.5012803024036],[-2.51507715059,42.5019912101857],[-2.51453333684395,42.5021435652329],[-2.51377277119639,42.5021228331618],[-2.51346757097156,42.5021721151106],[-2.51272616897745,42.5024497942821],[-2.51107077159878,42.5033897360071],[-2.51038375430676,42.5039618082504],[-2.50968752166176,42.5047424926315],[-2.50891721006116,42.5076924802833],[-2.50771464921166,42.5098934891528],[-2.50743382061427,42.5106546717352],[-2.50720664916747,42.5109068488315],[-2.50695428771019,42.5110028100911],[-2.5060535168563,42.5110834064336],[-2.50579252010869,42.5112185394636],[-2.50567746444341,42.5113221242761],[-2.50532397512131,42.5119622194404],[-2.50529985620335,42.5123378024072],[-2.50608204155293,42.5147358887098],[-2.50785718456137,42.5169158480475],[-2.50761642795572,42.5187018386784],[-2.50776561918792,42.5190201330322],[-2.50838312338237,42.5194010642672],[-2.50915715727694,42.5197230980021],[-2.51058743995833,42.5199271271946],[-2.51137082860083,42.5197415008291],[-2.51212069231605,42.5194204500532],[-2.51279372604955,42.5190354961507],[-2.51333132637956,42.5186161539718],[-2.51379869055705,42.5180205482692],[-2.51474474677258,42.5149120002481],[-2.51571905608949,42.512618780292],[-2.51668326691919,42.5112115103624],[-2.5182468291278,42.5091377447707],[-2.52021889128878,42.5070565103093],[-2.52193856141542,42.5055882069897],[-2.52462838778979,42.5035098863318],[-2.52653257361931,42.5021705844645],[-2.52920676887726,42.5004861587688],[-2.53158731480266,42.4990622091132],[-2.53455005214312,42.4974473900446],[-2.53568683118226,42.4967765704419],[-2.53704114723109,42.4956151418849],[-2.53749751629727,42.4950919522913],[-2.53801518495277,42.4939903709184],[-2.53787939092109,42.4918180234426],[-2.53788622936594,42.490634482355],[-2.53771772519281,42.4897727150983],[-2.53718070132828,42.4890423423898],[-2.53444321987865,42.487575546334],[-2.53233703282774,42.4865791802446],[-2.53059557572522,42.4859847787342],[-2.52960997901727,42.4854878367538],[-2.52934136591125,42.4851535443602],[-2.52912750892733,42.4847609732],[-2.52915419720841,42.4843563682114],[-2.52940158361616,42.484046248695],[-2.53060830832675,42.483567185237],[-2.53232465186113,42.4832426864604],[-2.53737274075934,42.4831734476561]]]},"properties":{"name":"Logro\u00f1o"}}]}